<?xml version="1.0" encoding="UTF-8"?>
<seiscomp xmlns="http://geofon.gfz-potsdam.de/ns/seiscomp3-schema/0.7" version="0.7">
  <EventParameters>
    <pick publicID="Pick#20130531213548.803628.13955">
      <time>
        <value>2013-05-31T17:36:09.434493Z</value>
      </time>
      <waveformID networkCode="NZ" stationCode="DALS" locationCode="20" channelCode="BN1"/>
      <phaseHint>P</phaseHint>
      <evaluationMode>manual</evaluationMode>
      <creationInfo>
        <agencyID>WEL(GNS_Primary)</agencyID>
        <author>cholden@scguiz-ak</author>
        <creationTime>2013-05-31T21:35:48.804135Z</creationTime>
      </creationInfo>
    </pick>
    <pick publicID="20130531.173610.32-NZ.AMCZ.10.EHZ">
      <time>
        <value>2013-05-31T17:36:10.328394Z</value>
      </time>
      <waveformID networkCode="NZ" stationCode="AMCZ" locationCode="10" channelCode="EHZ"/>
      <methodID>Trigger</methodID>
      <phaseHint>P</phaseHint>
      <evaluationMode>automatic</evaluationMode>
      <creationInfo>
        <agencyID>WEL(GNS_Primary)</agencyID>
        <author>scautopick@scz-ak.geonet.org.nz</author>
        <creationTime>2013-05-31T17:36:11.216165Z</creationTime>
      </creationInfo>
    </pick>
    <pick publicID="20130531.173610.88-NZ.CRLZ.10.HHZ">
      <time>
        <value>2013-05-31T17:36:10.884865Z</value>
      </time>
      <waveformID networkCode="NZ" stationCode="CRLZ" locationCode="10" channelCode="HHZ"/>
      <methodID>Trigger</methodID>
      <phaseHint>P</phaseHint>
      <evaluationMode>automatic</evaluationMode>
      <creationInfo>
        <agencyID>WEL(GNS_Primary)</agencyID>
        <author>scautopick@scz-ak.geonet.org.nz</author>
        <creationTime>2013-05-31T17:36:15.837247Z</creationTime>
      </creationInfo>
    </pick>
    <pick publicID="Pick#20130531213548.804924.13957">
      <time>
        <value>2013-05-31T17:36:16.032755Z</value>
      </time>
      <waveformID networkCode="NZ" stationCode="CRLZ" locationCode="10" channelCode="HHN"/>
      <phaseHint>S</phaseHint>
      <evaluationMode>manual</evaluationMode>
      <creationInfo>
        <agencyID>WEL(GNS_Primary)</agencyID>
        <author>cholden@scguiz-ak</author>
        <creationTime>2013-05-31T21:35:48.805061Z</creationTime>
      </creationInfo>
    </pick>
    <pick publicID="20130531.173609.90-NZ.HHSS.20.BNZ">
      <time>
        <value>2013-05-31T17:36:09.90065Z</value>
      </time>
      <waveformID networkCode="NZ" stationCode="HHSS" locationCode="20" channelCode="BNZ"/>
      <methodID>Trigger</methodID>
      <phaseHint>P</phaseHint>
      <evaluationMode>automatic</evaluationMode>
      <creationInfo>
        <agencyID>WEL(GNS_Primary)</agencyID>
        <author>scautopick@scz-ak.geonet.org.nz</author>
        <creationTime>2013-05-31T17:36:25.186865Z</creationTime>
      </creationInfo>
    </pick>
    <pick publicID="Pick#20130531213548.805163.13958">
      <time>
        <value>2013-05-31T17:36:15.563307Z</value>
      </time>
      <waveformID networkCode="NZ" stationCode="HHSS" locationCode="20" channelCode="BN2"/>
      <phaseHint>S</phaseHint>
      <evaluationMode>manual</evaluationMode>
      <creationInfo>
        <agencyID>WEL(GNS_Primary)</agencyID>
        <author>cholden@scguiz-ak</author>
        <creationTime>2013-05-31T21:35:48.805301Z</creationTime>
      </creationInfo>
    </pick>
    <pick publicID="20130531.173611.74-NZ.OKCZ.10.EHZ">
      <time>
        <value>2013-05-31T17:36:11.748398Z</value>
      </time>
      <waveformID networkCode="NZ" stationCode="OKCZ" locationCode="10" channelCode="EHZ"/>
      <methodID>Trigger</methodID>
      <phaseHint>P</phaseHint>
      <evaluationMode>automatic</evaluationMode>
      <creationInfo>
        <agencyID>WEL(GNS_Primary)</agencyID>
        <author>scautopick@scz-ak.geonet.org.nz</author>
        <creationTime>2013-05-31T17:36:13.221664Z</creationTime>
      </creationInfo>
    </pick>
    <pick publicID="20130531.173611.77-NZ.MQZ.10.HHZ">
      <time>
        <value>2013-05-31T17:36:11.778394Z</value>
      </time>
      <waveformID networkCode="NZ" stationCode="MQZ" locationCode="10" channelCode="HHZ"/>
      <methodID>Trigger</methodID>
      <phaseHint>P</phaseHint>
      <evaluationMode>automatic</evaluationMode>
      <creationInfo>
        <agencyID>WEL(GNS_Primary)</agencyID>
        <author>scautopick@scz-ak.geonet.org.nz</author>
        <creationTime>2013-05-31T17:36:14.931427Z</creationTime>
      </creationInfo>
    </pick>
    <pick publicID="Pick#20130531213548.805702.13960">
      <time>
        <value>2013-05-31T17:36:18.067026Z</value>
      </time>
      <waveformID networkCode="NZ" stationCode="MQZ" locationCode="10" channelCode="HHE"/>
      <phaseHint>S</phaseHint>
      <evaluationMode>manual</evaluationMode>
      <creationInfo>
        <agencyID>WEL(GNS_Primary)</agencyID>
        <author>cholden@scguiz-ak</author>
        <creationTime>2013-05-31T21:35:48.805842Z</creationTime>
      </creationInfo>
    </pick>
    <pick publicID="20130531.173611.46-NZ.GVZ.10.HHZ">
      <time>
        <value>2013-05-31T17:36:11.468391Z</value>
      </time>
      <waveformID networkCode="NZ" stationCode="GVZ" locationCode="10" channelCode="HHZ"/>
      <methodID>Trigger</methodID>
      <phaseHint>P</phaseHint>
      <evaluationMode>automatic</evaluationMode>
      <creationInfo>
        <agencyID>WEL(GNS_Primary)</agencyID>
        <author>scautopick@scz-ak.geonet.org.nz</author>
        <creationTime>2013-05-31T17:36:15.736706Z</creationTime>
      </creationInfo>
    </pick>
    <pick publicID="20130531.173612.23-NZ.WAKC.20.BNZ">
      <time>
        <value>2013-05-31T17:36:12.23Z</value>
      </time>
      <waveformID networkCode="NZ" stationCode="WAKC" locationCode="20" channelCode="BNZ"/>
      <methodID>Trigger</methodID>
      <phaseHint>P</phaseHint>
      <evaluationMode>automatic</evaluationMode>
      <creationInfo>
        <agencyID>WEL(GNS_Primary)</agencyID>
        <author>scautopick@scz-ak.geonet.org.nz</author>
        <creationTime>2013-05-31T17:36:15.535676Z</creationTime>
      </creationInfo>
    </pick>
    <pick publicID="20130531.173612.60-NZ.AKSS.20.BNZ">
      <time>
        <value>2013-05-31T17:36:12.609999Z</value>
      </time>
      <waveformID networkCode="NZ" stationCode="AKSS" locationCode="20" channelCode="BNZ"/>
      <methodID>Trigger</methodID>
      <phaseHint>P</phaseHint>
      <evaluationMode>automatic</evaluationMode>
      <creationInfo>
        <agencyID>WEL(GNS_Primary)</agencyID>
        <author>scautopick@scz-ak.geonet.org.nz</author>
        <creationTime>2013-05-31T17:36:16.742062Z</creationTime>
      </creationInfo>
    </pick>
    <pick publicID="20130531.173613.49-NZ.AKCZ.10.EHZ">
      <time>
        <value>2013-05-31T17:36:13.498391Z</value>
      </time>
      <waveformID networkCode="NZ" stationCode="AKCZ" locationCode="10" channelCode="EHZ"/>
      <methodID>Trigger</methodID>
      <phaseHint>P</phaseHint>
      <evaluationMode>automatic</evaluationMode>
      <creationInfo>
        <agencyID>WEL(GNS_Primary)</agencyID>
        <author>scautopick@scz-ak.geonet.org.nz</author>
        <creationTime>2013-05-31T17:36:15.539051Z</creationTime>
      </creationInfo>
    </pick>
    <pick publicID="20130531.173615.41-NZ.DSLC.20.BNZ">
      <time>
        <value>2013-05-31T17:36:15.41Z</value>
      </time>
      <waveformID networkCode="NZ" stationCode="DSLC" locationCode="20" channelCode="BNZ"/>
      <methodID>Trigger</methodID>
      <phaseHint>P</phaseHint>
      <evaluationMode>automatic</evaluationMode>
      <creationInfo>
        <agencyID>WEL(GNS_Primary)</agencyID>
        <author>scautopick@scz-ak.geonet.org.nz</author>
        <creationTime>2013-05-31T17:36:18.752732Z</creationTime>
      </creationInfo>
    </pick>
    <pick publicID="20130531.173613.45-NZ.OXZ.10.HHZ">
      <time>
        <value>2013-05-31T17:36:13.458395Z</value>
      </time>
      <waveformID networkCode="NZ" stationCode="OXZ" locationCode="10" channelCode="HHZ"/>
      <methodID>Trigger</methodID>
      <phaseHint>P</phaseHint>
      <evaluationMode>automatic</evaluationMode>
      <creationInfo>
        <agencyID>WEL(GNS_Primary)</agencyID>
        <author>scautopick@scz-ak.geonet.org.nz</author>
        <creationTime>2013-05-31T17:36:18.755212Z</creationTime>
      </creationInfo>
    </pick>
    <pick publicID="20130531.173615.70-NZ.OXZ.10.HHZ">
      <time>
        <value>2013-05-31T17:36:15.708395Z</value>
      </time>
      <waveformID networkCode="NZ" stationCode="OXZ" locationCode="10" channelCode="HHZ"/>
      <methodID>Trigger</methodID>
      <phaseHint>P</phaseHint>
      <evaluationMode>automatic</evaluationMode>
      <creationInfo>
        <agencyID>WEL(GNS_Primary)</agencyID>
        <author>scautopick@scz-ak.geonet.org.nz</author>
        <creationTime>2013-05-31T17:36:29.912578Z</creationTime>
      </creationInfo>
    </pick>
    <pick publicID="20130531.173617.00-NZ.SPRS.20.BNZ">
      <time>
        <value>2013-05-31T17:36:17.009999Z</value>
      </time>
      <waveformID networkCode="NZ" stationCode="SPRS" locationCode="20" channelCode="BNZ"/>
      <methodID>Trigger</methodID>
      <phaseHint>P</phaseHint>
      <evaluationMode>automatic</evaluationMode>
      <creationInfo>
        <agencyID>WEL(GNS_Primary)</agencyID>
        <author>scautopick@scz-ak.geonet.org.nz</author>
        <creationTime>2013-05-31T17:36:20.962914Z</creationTime>
      </creationInfo>
    </pick>
    <pick publicID="20130531.173617.18-NZ.LTZ.10.HHZ">
      <time>
        <value>2013-05-31T17:36:17.18686Z</value>
      </time>
      <waveformID networkCode="NZ" stationCode="LTZ" locationCode="10" channelCode="HHZ"/>
      <methodID>Trigger</methodID>
      <phaseHint>P</phaseHint>
      <evaluationMode>automatic</evaluationMode>
      <creationInfo>
        <agencyID>WEL(GNS_Primary)</agencyID>
        <author>scautopick@scz-ak.geonet.org.nz</author>
        <creationTime>2013-05-31T17:36:24.08129Z</creationTime>
      </creationInfo>
    </pick>
    <pick publicID="20130531.173616.80-NZ.WCSS.20.BNZ">
      <time>
        <value>2013-05-31T17:36:16.805321Z</value>
      </time>
      <waveformID networkCode="NZ" stationCode="WCSS" locationCode="20" channelCode="BNZ"/>
      <methodID>Trigger</methodID>
      <phaseHint>P</phaseHint>
      <evaluationMode>automatic</evaluationMode>
      <creationInfo>
        <agencyID>WEL(GNS_Primary)</agencyID>
        <author>scautopick@scz-ak.geonet.org.nz</author>
        <creationTime>2013-05-31T17:36:23.980913Z</creationTime>
      </creationInfo>
    </pick>
    <pick publicID="20130531.173618.31-NZ.HSES.20.BNZ">
      <time>
        <value>2013-05-31T17:36:18.31Z</value>
      </time>
      <waveformID networkCode="NZ" stationCode="HSES" locationCode="20" channelCode="BNZ"/>
      <methodID>Trigger</methodID>
      <phaseHint>P</phaseHint>
      <evaluationMode>automatic</evaluationMode>
      <creationInfo>
        <agencyID>WEL(GNS_Primary)</agencyID>
        <author>scautopick@scz-ak.geonet.org.nz</author>
        <creationTime>2013-05-31T17:36:33.626982Z</creationTime>
      </creationInfo>
    </pick>
    <pick publicID="20130531.173620.24-NZ.MTHS.20.BNZ">
      <time>
        <value>2013-05-31T17:36:20.249999Z</value>
      </time>
      <waveformID networkCode="NZ" stationCode="MTHS" locationCode="20" channelCode="BNZ"/>
      <methodID>Trigger</methodID>
      <phaseHint>P</phaseHint>
      <evaluationMode>automatic</evaluationMode>
      <creationInfo>
        <agencyID>WEL(GNS_Primary)</agencyID>
        <author>scautopick@scz-ak.geonet.org.nz</author>
        <creationTime>2013-05-31T17:36:22.474742Z</creationTime>
      </creationInfo>
    </pick>
    <pick publicID="20130531.173620.38-NZ.KHZ.10.HHZ">
      <time>
        <value>2013-05-31T17:36:20.388392Z</value>
      </time>
      <waveformID networkCode="NZ" stationCode="KHZ" locationCode="10" channelCode="HHZ"/>
      <methodID>Trigger</methodID>
      <phaseHint>P</phaseHint>
      <evaluationMode>automatic</evaluationMode>
      <creationInfo>
        <agencyID>WEL(GNS_Primary)</agencyID>
        <author>scautopick@scz-ak.geonet.org.nz</author>
        <creationTime>2013-05-31T17:36:25.690397Z</creationTime>
      </creationInfo>
    </pick>
    <pick publicID="20130531.173623.84-NZ.MAYC.20.BNZ">
      <time>
        <value>2013-05-31T17:36:23.849999Z</value>
      </time>
      <waveformID networkCode="NZ" stationCode="MAYC" locationCode="20" channelCode="BNZ"/>
      <methodID>Trigger</methodID>
      <phaseHint>P</phaseHint>
      <evaluationMode>automatic</evaluationMode>
      <creationInfo>
        <agencyID>WEL(GNS_Primary)</agencyID>
        <author>scautopick@scz-ak.geonet.org.nz</author>
        <creationTime>2013-05-31T17:36:27.6006Z</creationTime>
      </creationInfo>
    </pick>
    <pick publicID="20130531.173624.70-NZ.INZ.10.HHZ">
      <time>
        <value>2013-05-31T17:36:24.708388Z</value>
      </time>
      <waveformID networkCode="NZ" stationCode="INZ" locationCode="10" channelCode="HHZ"/>
      <methodID>Trigger</methodID>
      <phaseHint>P</phaseHint>
      <evaluationMode>automatic</evaluationMode>
      <creationInfo>
        <agencyID>WEL(GNS_Primary)</agencyID>
        <author>scautopick@scz-ak.geonet.org.nz</author>
        <creationTime>2013-05-31T17:36:34.635092Z</creationTime>
      </creationInfo>
    </pick>
    <pick publicID="20130531.173626.78-NZ.RPZ.10.HHZ">
      <time>
        <value>2013-05-31T17:36:26.788871Z</value>
      </time>
      <waveformID networkCode="NZ" stationCode="RPZ" locationCode="10" channelCode="HHZ"/>
      <methodID>Trigger</methodID>
      <phaseHint>P</phaseHint>
      <evaluationMode>automatic</evaluationMode>
      <creationInfo>
        <agencyID>WEL(GNS_Primary)</agencyID>
        <author>scautopick@scz-ak.geonet.org.nz</author>
        <creationTime>2013-05-31T17:36:34.128662Z</creationTime>
      </creationInfo>
    </pick>
    <pick publicID="20130531.173628.66-NZ.THZ.10.HHZ">
      <time>
        <value>2013-05-31T17:36:28.662865Z</value>
      </time>
      <waveformID networkCode="NZ" stationCode="THZ" locationCode="10" channelCode="HHZ"/>
      <methodID>Trigger</methodID>
      <phaseHint>P</phaseHint>
      <evaluationMode>automatic</evaluationMode>
      <creationInfo>
        <agencyID>WEL(GNS_Primary)</agencyID>
        <author>scautopick@scz-ak.geonet.org.nz</author>
        <creationTime>2013-05-31T17:36:33.127688Z</creationTime>
      </creationInfo>
    </pick>
    <pick publicID="20130531.173630.88-NZ.WVZ.10.HHZ">
      <time>
        <value>2013-05-31T17:36:30.888395Z</value>
      </time>
      <waveformID networkCode="NZ" stationCode="WVZ" locationCode="10" channelCode="HHZ"/>
      <methodID>Trigger</methodID>
      <phaseHint>P</phaseHint>
      <evaluationMode>automatic</evaluationMode>
      <creationInfo>
        <agencyID>WEL(GNS_Primary)</agencyID>
        <author>scautopick@scz-ak.geonet.org.nz</author>
        <creationTime>2013-05-31T17:36:35.133243Z</creationTime>
      </creationInfo>
    </pick>
    <pick publicID="20130531.173631.45-NZ.BSWZ.10.EHZ">
      <time>
        <value>2013-05-31T17:36:31.458396Z</value>
      </time>
      <waveformID networkCode="NZ" stationCode="BSWZ" locationCode="10" channelCode="EHZ"/>
      <methodID>Trigger</methodID>
      <phaseHint>P</phaseHint>
      <evaluationMode>automatic</evaluationMode>
      <creationInfo>
        <agencyID>WEL(GNS_Primary)</agencyID>
        <author>scautopick@scz-ak.geonet.org.nz</author>
        <creationTime>2013-05-31T17:36:35.236015Z</creationTime>
      </creationInfo>
    </pick>
    <pick publicID="20130531.173632.51-NZ.DSZ.10.HHZ">
      <time>
        <value>2013-05-31T17:36:32.518397Z</value>
      </time>
      <waveformID networkCode="NZ" stationCode="DSZ" locationCode="10" channelCode="HHZ"/>
      <methodID>Trigger</methodID>
      <phaseHint>P</phaseHint>
      <evaluationMode>automatic</evaluationMode>
      <creationInfo>
        <agencyID>WEL(GNS_Primary)</agencyID>
        <author>scautopick@scz-ak.geonet.org.nz</author>
        <creationTime>2013-05-31T17:36:36.337831Z</creationTime>
      </creationInfo>
    </pick>
    <pick publicID="20130531.173633.38-NZ.CMWZ.10.EHZ">
      <time>
        <value>2013-05-31T17:36:33.388392Z</value>
      </time>
      <waveformID networkCode="NZ" stationCode="CMWZ" locationCode="10" channelCode="EHZ"/>
      <methodID>Trigger</methodID>
      <phaseHint>P</phaseHint>
      <evaluationMode>automatic</evaluationMode>
      <creationInfo>
        <agencyID>WEL(GNS_Primary)</agencyID>
        <author>scautopick@scz-ak.geonet.org.nz</author>
        <creationTime>2013-05-31T17:36:34.134546Z</creationTime>
      </creationInfo>
    </pick>
    <pick publicID="20130531.173635.38-NZ.BWRS.20.BNZ">
      <time>
        <value>2013-05-31T17:36:35.389999Z</value>
      </time>
      <waveformID networkCode="NZ" stationCode="BWRS" locationCode="20" channelCode="BNZ"/>
      <methodID>Trigger</methodID>
      <phaseHint>P</phaseHint>
      <evaluationMode>automatic</evaluationMode>
      <creationInfo>
        <agencyID>WEL(GNS_Primary)</agencyID>
        <author>scautopick@scz-ak.geonet.org.nz</author>
        <creationTime>2013-05-31T17:36:45.373435Z</creationTime>
      </creationInfo>
    </pick>
    <pick publicID="20130531.173634.92-NZ.TUWZ.10.EHZ">
      <time>
        <value>2013-05-31T17:36:34.928392Z</value>
      </time>
      <waveformID networkCode="NZ" stationCode="TUWZ" locationCode="10" channelCode="EHZ"/>
      <methodID>Trigger</methodID>
      <phaseHint>P</phaseHint>
      <evaluationMode>automatic</evaluationMode>
      <creationInfo>
        <agencyID>WEL(GNS_Primary)</agencyID>
        <author>scautopick@scz-ak.geonet.org.nz</author>
        <creationTime>2013-05-31T17:36:38.245052Z</creationTime>
      </creationInfo>
    </pick>
    <pick publicID="20130531.173636.94-NZ.NNZ.10.HHZ">
      <time>
        <value>2013-05-31T17:36:36.94839Z</value>
      </time>
      <waveformID networkCode="NZ" stationCode="NNZ" locationCode="10" channelCode="HHZ"/>
      <methodID>Trigger</methodID>
      <phaseHint>P</phaseHint>
      <evaluationMode>automatic</evaluationMode>
      <creationInfo>
        <agencyID>WEL(GNS_Primary)</agencyID>
        <author>scautopick@scz-ak.geonet.org.nz</author>
        <creationTime>2013-05-31T17:36:48.185685Z</creationTime>
      </creationInfo>
    </pick>
    <pick publicID="20130531.173638.55-NZ.LBZ.10.HHZ">
      <time>
        <value>2013-05-31T17:36:38.558391Z</value>
      </time>
      <waveformID networkCode="NZ" stationCode="LBZ" locationCode="10" channelCode="HHZ"/>
      <methodID>Trigger</methodID>
      <phaseHint>P</phaseHint>
      <evaluationMode>automatic</evaluationMode>
      <creationInfo>
        <agencyID>WEL(GNS_Primary)</agencyID>
        <author>scautopick@scz-ak.geonet.org.nz</author>
        <creationTime>2013-05-31T17:36:43.163925Z</creationTime>
      </creationInfo>
    </pick>
    <pick publicID="20130531.173638.79-NZ.TCW.10.EHZ">
      <time>
        <value>2013-05-31T17:36:38.79839Z</value>
      </time>
      <waveformID networkCode="NZ" stationCode="TCW" locationCode="10" channelCode="EHZ"/>
      <methodID>Trigger</methodID>
      <phaseHint>P</phaseHint>
      <evaluationMode>automatic</evaluationMode>
      <creationInfo>
        <agencyID>WEL(GNS_Primary)</agencyID>
        <author>scautopick@scz-ak.geonet.org.nz</author>
        <creationTime>2013-05-31T17:36:44.669851Z</creationTime>
      </creationInfo>
    </pick>
    <pick publicID="20130531.173640.39-NZ.FOZ.10.HHZ">
      <time>
        <value>2013-05-31T17:36:40.398391Z</value>
      </time>
      <waveformID networkCode="NZ" stationCode="FOZ" locationCode="10" channelCode="HHZ"/>
      <methodID>Trigger</methodID>
      <phaseHint>P</phaseHint>
      <evaluationMode>automatic</evaluationMode>
      <creationInfo>
