<?xml version="1.0" encoding="UTF-8"?>
<seiscomp xmlns="http://geofon.gfz-potsdam.de/ns/seiscomp3-schema/0.7" version="0.7">
  <EventParameters>
    <pick publicID="Pick#20150105205459.273482.16271">
      <time>
        <value>2015-01-05T17:48:50.015289Z</value>
      </time>
      <waveformID networkCode="NZ" stationCode="INZ" locationCode="10" channelCode="HHZ"/>
      <phaseHint>P</phaseHint>
      <evaluationMode>manual</evaluationMode>
      <creationInfo>
        <agencyID>WEL(GNS_Primary)</agencyID>
        <author>srwgbgf@akeqx01.geonet.org.nz</author>
        <creationTime>2015-01-05T20:54:59.273673Z</creationTime>
      </creationInfo>
    </pick>
    <pick publicID="Pick#20150105205022.963851.15384">
      <time>
        <value>2015-01-05T17:48:54.922956Z</value>
      </time>
      <waveformID networkCode="NZ" stationCode="INZ" locationCode="10" channelCode="HHN"/>
      <phaseHint>S</phaseHint>
      <evaluationMode>manual</evaluationMode>
      <creationInfo>
        <agencyID>WEL(GNS_Primary)</agencyID>
        <author>srwgbgf@akeqx01.geonet.org.nz</author>
        <creationTime>2015-01-05T20:50:22.96392Z</creationTime>
      </creationInfo>
    </pick>
    <pick publicID="Pick#20150105205459.273773.16272">
      <time>
        <value>2015-01-05T17:48:50.83529Z</value>
      </time>
      <waveformID networkCode="NZ" stationCode="WVZ" locationCode="10" channelCode="HHZ"/>
      <phaseHint>P</phaseHint>
      <evaluationMode>manual</evaluationMode>
      <creationInfo>
        <agencyID>WEL(GNS_Primary)</agencyID>
        <author>srwgbgf@akeqx01.geonet.org.nz</author>
        <creationTime>2015-01-05T20:54:59.273843Z</creationTime>
      </creationInfo>
    </pick>
    <pick publicID="Pick#20150105205022.964105.15386">
      <time>
        <value>2015-01-05T17:48:55.742957Z</value>
      </time>
      <waveformID networkCode="NZ" stationCode="WVZ" locationCode="10" channelCode="HHN"/>
      <phaseHint>S</phaseHint>
      <evaluationMode>manual</evaluationMode>
      <creationInfo>
        <agencyID>WEL(GNS_Primary)</agencyID>
        <author>srwgbgf@akeqx01.geonet.org.nz</author>
        <creationTime>2015-01-05T20:50:22.964171Z</creationTime>
      </creationInfo>
    </pick>
    <pick publicID="Pick#20150105204710.252099.14602">
      <time>
        <value>2015-01-05T17:48:53.820026Z</value>
      </time>
      <waveformID networkCode="NZ" stationCode="MHCZ" locationCode="10" channelCode="EHZ"/>
      <phaseHint>P</phaseHint>
      <evaluationMode>manual</evaluationMode>
      <creationInfo>
        <agencyID>WEL(GNS_Primary)</agencyID>
        <author>srwgbgf@akeqx01.geonet.org.nz</author>
        <creationTime>2015-01-05T20:47:10.252345Z</creationTime>
      </creationInfo>
    </pick>
    <pick publicID="Pick#20150105204710.252546.14603">
      <time>
        <value>2015-01-05T17:48:55.780027Z</value>
      </time>
      <waveformID networkCode="NZ" stationCode="OXZ" locationCode="10" channelCode="HHZ"/>
      <phaseHint>P</phaseHint>
      <evaluationMode>manual</evaluationMode>
      <creationInfo>
        <agencyID>WEL(GNS_Primary)</agencyID>
        <author>srwgbgf@akeqx01.geonet.org.nz</author>
        <creationTime>2015-01-05T20:47:10.252613Z</creationTime>
      </creationInfo>
    </pick>
    <pick publicID="Pick#20150105205022.963588.15383">
      <time>
        <value>2015-01-05T17:48:56.851917Z</value>
      </time>
      <waveformID networkCode="NZ" stationCode="RPZ" locationCode="10" channelCode="HH2"/>
      <phaseHint>P</phaseHint>
      <evaluationMode>manual</evaluationMode>
      <creationInfo>
        <agencyID>WEL(GNS_Primary)</agencyID>
        <author>srwgbgf@akeqx01.geonet.org.nz</author>
        <creationTime>2015-01-05T20:50:22.963776Z</creationTime>
      </creationInfo>
    </pick>
    <pick publicID="Pick#20150105205022.964907.15392">
      <time>
        <value>2015-01-05T17:48:56.96454Z</value>
      </time>
      <waveformID networkCode="NZ" stationCode="GCSZ" locationCode="10" channelCode="EHZ"/>
      <phaseHint>P</phaseHint>
      <evaluationMode>manual</evaluationMode>
      <creationInfo>
        <agencyID>WEL(GNS_Primary)</agencyID>
        <author>srwgbgf@akeqx01.geonet.org.nz</author>
        <creationTime>2015-01-05T20:50:22.964972Z</creationTime>
      </creationInfo>
    </pick>
    <pick publicID="Pick#20150105205022.964331.15388">
      <time>
        <value>2015-01-05T17:48:58.99805Z</value>
      </time>
      <waveformID networkCode="NZ" stationCode="LTZ" locationCode="10" channelCode="HHZ"/>
      <phaseHint>P</phaseHint>
      <evaluationMode>manual</evaluationMode>
      <creationInfo>
        <agencyID>WEL(GNS_Primary)</agencyID>
        <author>srwgbgf@akeqx01.geonet.org.nz</author>
        <creationTime>2015-01-05T20:50:22.964413Z</creationTime>
      </creationInfo>
    </pick>
    <pick publicID="Pick#20150105204710.25281.14605">
      <time>
        <value>2015-01-05T17:49:01.804952Z</value>
      </time>
      <waveformID networkCode="NZ" stationCode="RACZ" locationCode="10" channelCode="EHZ"/>
      <phaseHint>P</phaseHint>
      <evaluationMode>manual</evaluationMode>
      <creationInfo>
        <agencyID>WEL(GNS_Primary)</agencyID>
        <author>srwgbgf@akeqx01.geonet.org.nz</author>
        <creationTime>2015-01-05T20:47:10.252947Z</creationTime>
      </creationInfo>
    </pick>
    <pick publicID="Pick#20150105204710.253118.14607">
      <time>
        <value>2015-01-05T17:49:02.718365Z</value>
      </time>
      <waveformID networkCode="NZ" stationCode="WACZ" locationCode="10" channelCode="EHZ"/>
      <phaseHint>P</phaseHint>
      <evaluationMode>manual</evaluationMode>
      <creationInfo>
        <agencyID>WEL(GNS_Primary)</agencyID>
        <author>srwgbgf@akeqx01.geonet.org.nz</author>
        <creationTime>2015-01-05T20:47:10.253181Z</creationTime>
      </creationInfo>
    </pick>
    <pick publicID="Pick#20150105205022.964556.15389">
      <time>
        <value>2015-01-05T17:49:04.267374Z</value>
      </time>
      <waveformID networkCode="NZ" stationCode="AMCZ" locationCode="10" channelCode="EHZ"/>
      <phaseHint>P</phaseHint>
      <evaluationMode>manual</evaluationMode>
      <creationInfo>
        <agencyID>WEL(GNS_Primary)</agencyID>
        <author>srwgbgf@akeqx01.geonet.org.nz</author>
        <creationTime>2015-01-05T20:50:22.964634Z</creationTime>
      </creationInfo>
    </pick>
    <pick publicID="Pick#20150105205238.671109.15840">
      <time>
        <value>2015-01-05T17:49:05.088368Z</value>
      </time>
      <waveformID networkCode="NZ" stationCode="FOZ" locationCode="10" channelCode="HHZ"/>
      <phaseHint>P</phaseHint>
      <evaluationMode>manual</evaluationMode>
      <creationInfo>
        <agencyID>WEL(GNS_Primary)</agencyID>
        <author>srwgbgf@akeqx01.geonet.org.nz</author>
        <creationTime>2015-01-05T20:52:38.671208Z</creationTime>
      </creationInfo>
    </pick>
    <pick publicID="Pick#20150105205022.964787.15391">
      <time>
        <value>2015-01-05T17:49:05.545296Z</value>
      </time>
      <waveformID networkCode="NZ" stationCode="MQZ" locationCode="10" channelCode="HHZ"/>
      <phaseHint>P</phaseHint>
      <evaluationMode>manual</evaluationMode>
      <creationInfo>
        <agencyID>WEL(GNS_Primary)</agencyID>
        <author>srwgbgf@akeqx01.geonet.org.nz</author>
        <creationTime>2015-01-05T20:50:22.964852Z</creationTime>
      </creationInfo>
    </pick>
    <pick publicID="Pick#20150105205022.965472.15396">
      <time>
        <value>2015-01-05T17:49:07.788366Z</value>
      </time>
      <waveformID networkCode="NZ" stationCode="GVZ" locationCode="10" channelCode="HHZ"/>
      <phaseHint>P</phaseHint>
      <evaluationMode>manual</evaluationMode>
      <creationInfo>
        <agencyID>WEL(GNS_Primary)</agencyID>
        <author>srwgbgf@akeqx01.geonet.org.nz</author>
        <creationTime>2015-01-05T20:50:22.965537Z</creationTime>
      </creationInfo>
    </pick>
    <pick publicID="Pick#20150105205238.671474.15842">
      <time>
        <value>2015-01-05T17:49:09.057598Z</value>
      </time>
      <waveformID networkCode="NZ" stationCode="DSZ" locationCode="10" channelCode="HHZ"/>
      <phaseHint>P</phaseHint>
      <evaluationMode>manual</evaluationMode>
      <creationInfo>
        <agencyID>WEL(GNS_Primary)</agencyID>
        <author>srwgbgf@akeqx01.geonet.org.nz</author>
        <creationTime>2015-01-05T20:52:38.671574Z</creationTime>
      </creationInfo>
    </pick>
    <pick publicID="Pick#20150105205022.965102.15393">
      <time>
        <value>2015-01-05T17:49:27.771848Z</value>
      </time>
      <waveformID networkCode="NZ" stationCode="AKCZ" locationCode="10" channelCode="EHN"/>
      <phaseHint>S</phaseHint>
      <evaluationMode>manual</evaluationMode>
      <creationInfo>
        <agencyID>WEL(GNS_Primary)</agencyID>
        <author>srwgbgf@akeqx01.geonet.org.nz</author>
        <creationTime>2015-01-05T20:50:22.965185Z</creationTime>
      </creationInfo>
    </pick>
    <pick publicID="Pick#20150105205022.965226.15394">
      <time>
        <value>2015-01-05T17:49:09.479633Z</value>
      </time>
      <waveformID networkCode="NZ" stationCode="AKCZ" locationCode="10" channelCode="EHZ"/>
      <phaseHint>P</phaseHint>
      <evaluationMode>manual</evaluationMode>
      <creationInfo>
        <agencyID>WEL(GNS_Primary)</agencyID>
        <author>srwgbgf@akeqx01.geonet.org.nz</author>
        <creationTime>2015-01-05T20:50:22.965291Z</creationTime>
      </creationInfo>
    </pick>
    <pick publicID="Pick#20150105205238.67046.15837">
      <time>
        <value>2015-01-05T17:49:10.438363Z</value>
      </time>
      <waveformID networkCode="NZ" stationCode="OKCZ" locationCode="10" channelCode="EHZ"/>
      <phaseHint>P</phaseHint>
      <evaluationMode>manual</evaluationMode>
      <creationInfo>
        <agencyID>WEL(GNS_Primary)</agencyID>
        <author>srwgbgf@akeqx01.geonet.org.nz</author>
        <creationTime>2015-01-05T20:52:38.67069Z</creationTime>
      </creationInfo>
    </pick>
    <pick publicID="Pick#20150105205238.671278.15841">
      <time>
        <value>2015-01-05T17:49:11.033102Z</value>
      </time>
      <waveformID networkCode="NZ" stationCode="LBZ" locationCode="10" channelCode="HHZ"/>
      <phaseHint>P</phaseHint>
      <evaluationMode>manual</evaluationMode>
      <creationInfo>
        <agencyID>WEL(GNS_Primary)</agencyID>
        <author>srwgbgf@akeqx01.geonet.org.nz</author>
        <creationTime>2015-01-05T20:52:38.671401Z</creationTime>
      </creationInfo>
    </pick>
    <pick publicID="Pick#20150105205238.671845.15844">
      <time>
        <value>2015-01-05T17:49:14.733105Z</value>
      </time>
      <waveformID networkCode="NZ" stationCode="THZ" locationCode="10" channelCode="HHZ"/>
      <phaseHint>P</phaseHint>
      <evaluationMode>manual</evaluationMode>
      <creationInfo>
        <agencyID>WEL(GNS_Primary)</agencyID>
        <author>srwgbgf@akeqx01.geonet.org.nz</author>
        <creationTime>2015-01-05T20:52:38.671948Z</creationTime>
      </creationInfo>
    </pick>
    <pick publicID="Pick#20150105205238.671644.15843">
      <time>
        <value>2015-01-05T17:49:14.172214Z</value>
      </time>
      <waveformID networkCode="NZ" stationCode="KHZ" locationCode="10" channelCode="HHZ"/>
      <phaseHint>P</phaseHint>
      <evaluationMode>manual</evaluationMode>
      <creationInfo>
        <agencyID>WEL(GNS_Primary)</agencyID>
        <author>srwgbgf@akeqx01.geonet.org.nz</author>
        <creationTime>2015-01-05T20:52:38.67176Z</creationTime>
      </creationInfo>
    </pick>
    <pick publicID="Pick#20150105205332.005724.16076">
      <time>
        <value>2015-01-05T17:49:18.172212Z</value>
      </time>
      <waveformID networkCode="NZ" stationCode="JCZ" locationCode="10" channelCode="HHN"/>
      <phaseHint>P</phaseHint>
      <evaluationMode>manual</evaluationMode>
      <creationInfo>
        <agencyID>WEL(GNS_Primary)</agencyID>
        <author>srwgbgf@akeqx01.geonet.org.nz</author>
        <creationTime>2015-01-05T20:53:32.005928Z</creationTime>
      </creationInfo>
    </pick>
    <pick publicID="Pick#20150105205238.672021.15845">
      <time>
        <value>2015-01-05T17:49:17.205287Z</value>
      </time>
      <waveformID networkCode="NZ" stationCode="ODZ" locationCode="10" channelCode="HHZ"/>
      <phaseHint>P</phaseHint>
      <evaluationMode>manual</evaluationMode>
      <creationInfo>
        <agencyID>WEL(GNS_Primary)</agencyID>
        <author>srwgbgf@akeqx01.geonet.org.nz</author>
        <creationTime>2015-01-05T20:52:38.672121Z</creationTime>
      </creationInfo>
    </pick>
    <pick publicID="Pick#20150105205332.006022.16077">
      <time>
        <value>2015-01-05T17:49:22.816995Z</value>
      </time>
      <waveformID networkCode="NZ" stationCode="BSWZ" locationCode="10" channelCode="EHN"/>
      <phaseHint>P</phaseHint>
      <evaluationMode>manual</evaluationMode>
      <creationInfo>
        <agencyID>WEL(GNS_Primary)</agencyID>
        <author>srwgbgf@akeqx01.geonet.org.nz</author>
        <creationTime>2015-01-05T20:53:32.006123Z</creationTime>
      </creationInfo>
    </pick>
    <pick publicID="Pick#20150105205332.006219.16078">
      <time>
        <value>2015-01-05T17:49:22.564516Z</value>
      </time>
      <waveformID networkCode="NZ" stationCode="WKZ" locationCode="10" channelCode="HHN"/>
      <phaseHint>P</phaseHint>
      <evaluationMode>manual</evaluationMode>
      <creationInfo>
        <agencyID>WEL(GNS_Primary)</agencyID>
        <author>srwgbgf@akeqx01.geonet.org.nz</author>
        <creationTime>2015-01-05T20:53:32.006321Z</creationTime>
      </creationInfo>
    </pick>
    <pick publicID="Pick#20150105205332.006542.16079">
      <time>
        <value>2015-01-05T17:49:24.340646Z</value>
      </time>
      <waveformID networkCode="NZ" stationCode="NNZ" locationCode="10" channelCode="HHN"/>
      <phaseHint>P</phaseHint>
      <evaluationMode>manual</evaluationMode>
      <creationInfo>
        <agencyID>WEL(GNS_Primary)</agencyID>
        <author>srwgbgf@akeqx01.geonet.org.nz</author>
        <creationTime>2015-01-05T20:53:32.006651Z</creationTime>
      </creationInfo>
    </pick>
    <pick publicID="Pick#20150105175623.732994.13616">
      <time>
        <value>2015-01-05T17:49:54.756125Z</value>
      </time>
      <waveformID networkCode="NZ" stationCode="NNZ" locationCode="10" channelCode="HHT"/>
      <phaseHint>S</phaseHint>
      <evaluationMode>manual</evaluationMode>
      <creationInfo>
        <agencyID>WEL(GNS_Primary)</agencyID>
        <author>jristau@akeqx01.geonet.org.nz</author>
        <creationTime>2015-01-05T17:56:23.733059Z</creationTime>
      </creationInfo>
    </pick>
    <pick publicID="Pick#20150105205332.00709.16082">
      <time>
        <value>2015-01-05T17:49:23.671444Z</value>
      </time>
      <waveformID networkCode="NZ" stationCode="QRZ" locationCode="10" channelCode="HHN"/>
      <phaseHint>P</phaseHint>
      <evaluationMode>manual</evaluationMode>
      <creationInfo>
        <agencyID>WEL(GNS_Primary)</agencyID>
        <author>srwgbgf@akeqx01.geonet.org.nz</author>
        <creationTime>2015-01-05T20:53:32.007216Z</creationTime>
      </creationInfo>
    </pick>
    <pick publicID="Pick#20150105205332.006726.16080">
      <time>
        <value>2015-01-05T17:49:28.644527Z</value>
      </time>
      <waveformID networkCode="NZ" stationCode="CMWZ" locationCode="10" channelCode="EHN"/>
      <phaseHint>P</phaseHint>
      <evaluationMode>manual</evaluationMode>
      <creationInfo>
        <agencyID>WEL(GNS_Primary)</agencyID>
        <author>srwgbgf@akeqx01.geonet.org.nz</author>
        <creationTime>2015-01-05T20:53:32.006826Z</creationTime>
      </creationInfo>
    </pick>
    <pick publicID="20150105.174923.71-AIC-NZ.EAZ.10.HHZ">
      <time>
        <value>2015-01-05T17:49:23.713125Z</value>
      </time>
      <waveformID networkCode="NZ" stationCode="EAZ" locationCode="10" channelCode="HHZ"/>
      <methodID>AIC</methodID>
      <phaseHint>P</phaseHint>
      <evaluationMode>automatic</evaluationMode>
      <creationInfo>
        <agencyID>WEL(GNS_Primary)</agencyID>
        <author>scautopick@akeqp01.geonet.org.nz</author>
        <creationTime>2015-01-05T17:49:28.342131Z</creationTime>
      </creationInfo>
    </pick>
    <pick publicID="Pick#20150105205332.006911.16081">
      <time>
        <value>2015-01-05T17:49:25.787433Z</value>
      </time>
      <waveformID networkCode="NZ" stationCode="TUWZ" locationCode="10" channelCode="EHN"/>
      <phaseHint>P</phaseHint>
      <evaluationMode>manual</evaluationMode>
      <creationInfo>
        <agencyID>WEL(GNS_Primary)</agencyID>
        <author>srwgbgf@akeqx01.geonet.org.nz</author>
        <creationTime>2015-01-05T20:53:32.007014Z</creationTime>
      </creationInfo>
    </pick>
    <pick publicID="20150105.174928.84-AIC-NZ.MSZ.10.HHZ">
      <time>
        <value>2015-01-05T17:49:28.848393Z</value>
      </time>
      <waveformID networkCode="NZ" stationCode="MSZ" locationCode="10" channelCode="HHZ"/>
      <methodID>AIC</methodID>
      <phaseHint>P</phaseHint>
      <evaluationMode>automatic</evaluationMode>
      <creationInfo>
        <agencyID>WEL(GNS_Primary)</agencyID>
        <author>scautopick@akeqp01.geonet.org.nz</author>
        <creationTime>2015-01-05T17:49:41.307238Z</creationTime>
      </creationInfo>
    </pick>
    <pick publicID="20150105.174927.95-AIC-NZ.OPZ.10.HHZ">
      <time>
        <value>2015-01-05T17:49:27.958392Z</value>
      </time>
      <waveformID networkCode="NZ" stationCode="OPZ" locationCode="10" channelCode="HHZ"/>
      <methodID>AIC</methodID>
      <phaseHint>P</phaseHint>
      <evaluationMode>automatic</evaluationMode>
      <creationInfo>
        <agencyID>WEL(GNS_Primary)</agencyID>
        <author>scautopick@akeqp01.geonet.org.nz</author>
        <creationTime>2015-01-05T17:49:44.647246Z</creationTime>
      </creationInfo>
    </pick>
    <pick publicID="20150105.174927.11-AIC-NZ.TCW.10.EHZ">
      <time>
        <value>2015-01-05T17:49:27.118392Z</value>
      </time>
      <waveformID networkCode="NZ" stationCode="TCW" locationCode="10" channelCode="EHZ"/>
      <methodID>AIC</methodID>
      <phaseHint>P</phaseHint>
      <evaluationMode>automatic</evaluationMode>
      <creationInfo>
        <agencyID>WEL(GNS_Primary)</agencyID>
        <author>scautopick@akeqp01.geonet.org.nz</author>
        <creationTime>2015-01-05T17:49:39.798946Z</creationTime>
      </creationInfo>
    </pick>
    <pick publicID="20150105.174926.87-AIC-NZ.DUWZ.10.EHZ">
      <time>
        <value>2015-01-05T17:49:26.878387Z</value>
      </time>
      <waveformID networkCode="NZ" stationCode="DUWZ" locationCode="10" channelCode="EHZ"/>
      <methodID>AIC</methodID>
      <phaseHint>P</phaseHint>
      <evaluationMode>automatic</evaluationMode>
      <creationInfo>
        <agencyID>WEL(GNS_Primary)</agencyID>
        <author>scautopick@akeqp01.geonet.org.nz</author>
        <creationTime>2015-01-05T17:49:43.620977Z</creationTime>
      </creationInfo>
    </pick>
    <pick publicID="20150105.174931.41-AIC-NZ.TUZ.10.HHZ">
      <time>
        <value>2015-01-05T17:49:31.418403Z</value>
      </time>
      <waveformID networkCode="NZ" stationCode="TUZ" locationCode="10" channelCode="HHZ"/>
      <methodID>AIC</methodID>
      <phaseHint>P</phaseHint>
      <evaluationMode>automatic</evaluationMode>
      <creationInfo>
        <agencyID>WEL(GNS_Primary)</agencyID>
        <author>scautopick@akeqp01.geonet.org.nz</author>
        <creationTime>2015-01-05T17:49:43.014771Z</creationTime>
      </creationInfo>
    </pick>
    <pick publicID="20150105.174931.98-AIC-NZ.BHW.10.EHZ">
      <time>
        <value>2015-01-05T17:49:31.988392Z</value>
      </time>
      <waveformID networkCode="NZ" stationCode="BHW" locationCode="10" channelCode="EHZ"/>
      <methodID>AIC</methodID>
      <phaseHint>P</phaseHint>
