<?xml version="1.0" encoding="UTF-8"?>

<seiscomp xmlns="http://geofon.gfz-potsdam.de/ns/seiscomp3-schema/0.7" version="0.7">
  <EventParameters>
    <pick publicID="3494030">
      <time>
        <value>2003-08-21T16:50:22.743Z</value>
        <lowerUncertainty>0.1</lowerUncertainty>
        <upperUncertainty>0.25</upperUncertainty>
      </time>
      <waveformID channelCode="HHZ" stationCode="WHZ" networkCode="NZ" locationCode="10"/>
      <phaseHint>Pn</phaseHint>
      <evaluationMode>manual</evaluationMode>
      <evaluationStatus>confirmed</evaluationStatus>
    </pick>
    <pick publicID="3494046">
      <time>
        <value>2003-08-21T16:51:52.365Z</value>
        <lowerUncertainty>0.5</lowerUncertainty>
        <upperUncertainty>1.0</upperUncertainty>
      </time>
      <waveformID channelCode="EHZ" stationCode="NEZ" networkCode="NZ" locationCode="10"/>
      <onset>emergent</onset>
      <phaseHint>Pn</phaseHint>
      <evaluationMode>manual</evaluationMode>
      <evaluationStatus>rejected</evaluationStatus>
    </pick>
    <pick publicID="3494051">
      <time>
        <value>2003-08-21T16:52:09.141Z</value>
        <lowerUncertainty>0.5</lowerUncertainty>
        <upperUncertainty>1.0</upperUncertainty>
      </time>
      <waveformID channelCode="SHZ" stationCode="KAVZ" networkCode="NZ" locationCode="10"/>
      <onset>emergent</onset>
      <phaseHint>Pn</phaseHint>
      <evaluationMode>manual</evaluationMode>
      <evaluationStatus>rejected</evaluationStatus>
    </pick>
    <pick publicID="3494031">
      <time>
        <value>2003-08-21T16:50:37.263Z</value>
        <lowerUncertainty>0.1</lowerUncertainty>
        <upperUncertainty>0.25</upperUncertainty>
      </time>
      <waveformID channelCode="HHN" stationCode="WHZ" networkCode="NZ" locationCode="10"/>
      <phaseHint>Sn</phaseHint>
      <evaluationMode>manual</evaluationMode>
      <evaluationStatus>confirmed</evaluationStatus>
    </pick>
    <pick publicID="3494033">
      <time>
        <value>2003-08-21T16:50:52.204Z</value>
        <lowerUncertainty>0.1</lowerUncertainty>
        <upperUncertainty>0.25</upperUncertainty>
      </time>
      <waveformID channelCode="HHZ" stationCode="RPZ" networkCode="NZ" locationCode="10"/>
      <phaseHint>Pn</phaseHint>
      <evaluationMode>manual</evaluationMode>
      <evaluationStatus>confirmed</evaluationStatus>
    </pick>
    <pick publicID="3494034">
      <time>
        <value>2003-08-21T16:51:06.441Z</value>
        <lowerUncertainty>0.1</lowerUncertainty>
        <upperUncertainty>0.25</upperUncertainty>
      </time>
      <waveformID channelCode="HHZ" stationCode="MQZ" networkCode="NZ" locationCode="10"/>
      <phaseHint>Pn</phaseHint>
      <evaluationMode>manual</evaluationMode>
      <evaluationStatus>confirmed</evaluationStatus>
    </pick>
    <pick publicID="3494050">
      <time>
        <value>2003-08-21T16:51:40.390Z</value>
        <lowerUncertainty>0.5</lowerUncertainty>
        <upperUncertainty>1.0</upperUncertainty>
      </time>
      <waveformID channelCode="SHZ" stationCode="DIW" networkCode="NZ" locationCode="11"/>
      <onset>emergent</onset>
      <phaseHint>Pn</phaseHint>
      <evaluationMode>manual</evaluationMode>
      <evaluationStatus>rejected</evaluationStatus>
    </pick>
    <pick publicID="3494041">
      <time>
        <value>2003-08-21T16:50:15.700Z</value>
        <lowerUncertainty>0.1</lowerUncertainty>
        <upperUncertainty>0.25</upperUncertainty>
      </time>
      <waveformID channelCode="HNZ" stationCode="TAFS" networkCode="NZ" locationCode="20"/>
      <phaseHint>Pb</phaseHint>
      <evaluationMode>manual</evaluationMode>
      <evaluationStatus>confirmed</evaluationStatus>
    </pick>
    <pick publicID="3494054">
      <time>
        <value>2003-08-21T16:52:07.985Z</value>
        <lowerUncertainty>0.5</lowerUncertainty>
        <upperUncertainty>1.0</upperUncertainty>
      </time>
      <waveformID channelCode="SHZ" stationCode="TUVZ" networkCode="NZ" locationCode="10"/>
      <onset>emergent</onset>
      <phaseHint>Pn</phaseHint>
      <evaluationMode>manual</evaluationMode>
      <evaluationStatus>rejected</evaluationStatus>
    </pick>
    <pick publicID="3494055">
      <time>
        <value>2003-08-21T16:52:08.235Z</value>
        <lowerUncertainty>0.5</lowerUncertainty>
        <upperUncertainty>1.0</upperUncertainty>
      </time>
      <waveformID channelCode="SHZ" stationCode="MGZ" networkCode="NZ" locationCode="10"/>
      <onset>emergent</onset>
      <phaseHint>Pn</phaseHint>
      <evaluationMode>manual</evaluationMode>
      <evaluationStatus>rejected</evaluationStatus>
    </pick>
    <pick publicID="3494038">
      <time>
        <value>2003-08-21T16:51:58.311Z</value>
        <lowerUncertainty>0.5</lowerUncertainty>
        <upperUncertainty>1.0</upperUncertainty>
      </time>
      <waveformID channelCode="HHZ" stationCode="BFZ" networkCode="NZ" locationCode="10"/>
      <onset>emergent</onset>
      <phaseHint>Pn</phaseHint>
      <evaluationMode>manual</evaluationMode>
      <evaluationStatus>rejected</evaluationStatus>
    </pick>
    <pick publicID="3494042">
      <time>
        <value>2003-08-21T16:50:32.000Z</value>
        <lowerUncertainty>0.1</lowerUncertainty>
        <upperUncertainty>0.25</upperUncertainty>
      </time>
      <waveformID channelCode="SHZ" stationCode="AXZ" networkCode="NZ" locationCode="10"/>
      <phaseHint>Pn</phaseHint>
      <evaluationMode>manual</evaluationMode>
      <evaluationStatus>confirmed</evaluationStatus>
    </pick>
    <pick publicID="3494044">
      <time>
        <value>2003-08-21T16:50:38.330Z</value>
        <lowerUncertainty>0.1</lowerUncertainty>
        <upperUncertainty>0.25</upperUncertainty>
      </time>
      <waveformID channelCode="SHZ" stationCode="BWZ" networkCode="NZ" locationCode="10"/>
      <phaseHint>Pn</phaseHint>
      <evaluationMode>manual</evaluationMode>
      <evaluationStatus>confirmed</evaluationStatus>
    </pick>
    <pick publicID="3494056">
      <time>
        <value>2003-08-21T16:52:08.000Z</value>
        <lowerUncertainty>0.5</lowerUncertainty>
        <upperUncertainty>1.0</upperUncertainty>
      </time>
      <waveformID channelCode="SHZ" stationCode="MOZ" networkCode="NZ" locationCode="10"/>
      <onset>emergent</onset>
      <phaseHint>Pn</phaseHint>
      <evaluationMode>manual</evaluationMode>
      <evaluationStatus>rejected</evaluationStatus>
    </pick>
    <pick publicID="3494032">
      <time>
        <value>2003-08-21T16:50:37.013Z</value>
        <lowerUncertainty>0.25</lowerUncertainty>
        <upperUncertainty>0.5</upperUncertainty>
      </time>
      <waveformID channelCode="HHE" stationCode="WHZ" networkCode="NZ" locationCode="10"/>
      <phaseHint>Sn</phaseHint>
      <evaluationMode>manual</evaluationMode>
      <evaluationStatus>confirmed</evaluationStatus>
    </pick>
    <pick publicID="3494039">
      <time>
        <value>2003-08-21T16:50:24.580Z</value>
        <lowerUncertainty>0.25</lowerUncertainty>
        <upperUncertainty>0.5</upperUncertainty>
      </time>
      <waveformID channelCode="HN2" stationCode="TAFS" networkCode="NZ" locationCode="20"/>
      <phaseHint>Sb</phaseHint>
      <evaluationMode>manual</evaluationMode>
      <evaluationStatus>rejected</evaluationStatus>
    </pick>
    <pick publicID="3494045">
      <time>
        <value>2003-08-21T16:51:06.895Z</value>
        <upperUncertainty>0.1</upperUncertainty>
      </time>
      <waveformID channelCode="HHZ" stationCode="CRLZ" networkCode="NZ" locationCode="10"/>
      <phaseHint>Pn</phaseHint>
      <evaluationMode>manual</evaluationMode>
      <evaluationStatus>confirmed</evaluationStatus>
    </pick>
    <pick publicID="3494049">
      <time>
        <value>2003-08-21T16:51:41.090Z</value>
        <lowerUncertainty>0.5</lowerUncertainty>
        <upperUncertainty>1.0</upperUncertainty>
      </time>
      <waveformID channelCode="SHZ" stationCode="OTW" networkCode="NZ" locationCode="11"/>
      <onset>emergent</onset>
      <phaseHint>Pn</phaseHint>
      <evaluationMode>manual</evaluationMode>
      <evaluationStatus>rejected</evaluationStatus>
    </pick>
    <pick publicID="3494028">
      <time>
        <value>2003-08-21T16:51:27.635Z</value>
        <lowerUncertainty>0.5</lowerUncertainty>
        <upperUncertainty>1.0</upperUncertainty>
      </time>
      <waveformID channelCode="HHZ" stationCode="QRZ" networkCode="NZ" locationCode="10"/>
      <onset>emergent</onset>
      <phaseHint>Pn</phaseHint>
      <evaluationMode>manual</evaluationMode>
      <evaluationStatus>rejected</evaluationStatus>
    </pick>
    <pick publicID="3494029">
      <time>
        <value>2003-08-21T16:51:21.711Z</value>
        <lowerUncertainty>0.5</lowerUncertainty>
        <upperUncertainty>1.0</upperUncertainty>
      </time>
      <waveformID channelCode="HHZ" stationCode="KHZ" networkCode="NZ" locationCode="10"/>
      <onset>emergent</onset>
      <phaseHint>Pn</phaseHint>
      <evaluationMode>manual</evaluationMode>
      <evaluationStatus>rejected</evaluationStatus>
    </pick>
    <pick publicID="3494035">
      <time>
        <value>2003-08-21T16:51:14.121Z</value>
        <lowerUncertainty>0.5</lowerUncertainty>
        <upperUncertainty>1.0</upperUncertainty>
      </time>
      <waveformID channelCode="HHZ" stationCode="DSZ" networkCode="NZ" locationCode="10"/>
      <onset>emergent</onset>
      <phaseHint>Pn</phaseHint>
      <evaluationMode>manual</evaluationMode>
      <evaluationStatus>rejected</evaluationStatus>
    </pick>
    <pick publicID="3494036">
      <time>
        <value>2003-08-21T16:51:21.817Z</value>
        <lowerUncertainty>0.5</lowerUncertainty>
        <upperUncertainty>1.0</upperUncertainty>
      </time>
      <waveformID channelCode="HHZ" stationCode="THZ" networkCode="NZ" locationCode="10"/>
      <onset>emergent</onset>
      <phaseHint>Pn</phaseHint>
      <evaluationMode>manual</evaluationMode>
      <evaluationStatus>rejected</evaluationStatus>
    </pick>
    <pick publicID="3494052">
      <time>
        <value>2003-08-21T16:52:07.885Z</value>
        <lowerUncertainty>0.5</lowerUncertainty>
        <upperUncertainty>1.0</upperUncertainty>
      </time>
      <waveformID channelCode="SHZ" stationCode="DRZ" networkCode="NZ" locationCode="10"/>
      <onset>emergent</onset>
      <phaseHint>Pn</phaseHint>
      <evaluationMode>manual</evaluationMode>
      <evaluationStatus>rejected</evaluationStatus>
    </pick>
    <pick publicID="3494040">
      <time>
        <value>2003-08-21T16:50:23.470Z</value>
        <lowerUncertainty>0.25</lowerUncertainty>
        <upperUncertainty>0.5</upperUncertainty>
      </time>
      <waveformID channelCode="HN1" stationCode="TAFS" networkCode="NZ" locationCode="20"/>
      <phaseHint>Sb</phaseHint>
      <evaluationMode>manual</evaluationMode>
      <evaluationStatus>confirmed</evaluationStatus>
    </pick>
    <pick publicID="3494043">
      <time>
        <value>2003-08-21T16:50:15.680Z</value>
        <lowerUncertainty>0.1</lowerUncertainty>
        <upperUncertainty>0.25</upperUncertainty>
      </time>
      <waveformID channelCode="SHZ" stationCode="MSZ" networkCode="NZ" locationCode="10"/>
      <phaseHint>Pb</phaseHint>
      <evaluationMode>manual</evaluationMode>
      <evaluationStatus>confirmed</evaluationStatus>
    </pick>
    <pick publicID="3494047">
      <time>
        <value>2003-08-21T16:51:56.825Z</value>
        <lowerUncertainty>0.5</lowerUncertainty>
        <upperUncertainty>1.0</upperUncertainty>
      </time>
      <waveformID channelCode="EHZ" stationCode="RAEZ" networkCode="NZ" locationCode="10"/>
      <onset>emergent</onset>
      <phaseHint>Pn</phaseHint>
      <evaluationMode>manual</evaluationMode>
      <evaluationStatus>rejected</evaluationStatus>
    </pick>
    <pick publicID="3494048">
      <time>
        <value>2003-08-21T16:51:46.590Z</value>
        <lowerUncertainty>0.5</lowerUncertainty>
        <upperUncertainty>1.0</upperUncertainty>
      </time>
      <waveformID channelCode="SHZ" stationCode="KIW" networkCode="NZ" locationCode="11"/>
      <onset>emergent</onset>
      <phaseHint>Pn</phaseHint>
      <evaluationMode>manual</evaluationMode>
      <evaluationStatus>rejected</evaluationStatus>
    </pick>
    <pick publicID="3494057">
      <time>
        <value>2003-08-21T16:52:06.790Z</value>
        <lowerUncertainty>0.5</lowerUncertainty>
        <upperUncertainty>1.0</upperUncertainty>
      </time>
      <waveformID channelCode="SHZ" stationCode="OIZ" networkCode="NZ" locationCode="10"/>
      <onset>emergent</onset>
      <phaseHint>Pn</phaseHint>
      <evaluationMode>manual</evaluationMode>
      <evaluationStatus>rejected</evaluationStatus>
    </pick>
    <pick publicID="3494037">
      <time>
        <value>2003-08-21T16:51:31.179Z</value>
        <lowerUncertainty>0.5</lowerUncertainty>
        <upperUncertainty>1.0</upperUncertainty>
      </time>
      <waveformID channelCode="HHZ" stationCode="NNZ" networkCode="NZ" locationCode="10"/>
      <onset>emergent</onset>
      <phaseHint>Pn</phaseHint>
      <evaluationMode>manual</evaluationMode>
      <evaluationStatus>rejected</evaluationStatus>
    </pick>
    <pick publicID="3494053">
      <time>
        <value>2003-08-21T16:52:07.885Z</value>
        <lowerUncertainty>0.5</lowerUncertainty>
        <upperUncertainty>1.0</upperUncertainty>
      </time>
      <waveformID channelCode="SHZ" stationCode="NGZ" networkCode="NZ" locationCode="10"/>
      <onset>emergent</onset>
      <phaseHint>Pn</phaseHint>
      <evaluationMode>manual</evaluationMode>
      <evaluationStatus>rejected</evaluationStatus>
    </pick>
    <amplitude publicID="6827676">
      <type>A</type>
      <amplitude>
        <value>2962.426000</value>
      </amplitude>
      <timeWindow>
        <reference>2003-08-21T16:52:28.207Z</reference>
        <begin>0</begin>
        <end>0</end>
      </timeWindow>
      <unit>dimensionless</unit>
      <waveformID channelCode="HHZ" stationCode="THZ" networkCode="NZ" locationCode="10"/>
      <evaluationMode>automatic</evaluationMode>
    </amplitude>
    <amplitude publicID="6827677">
      <type>A</type>
      <amplitude>
        <value>0.001058</value>
      </amplitude>
      <timeWindow>
        <reference>2003-08-21T16:52:28.387Z</reference>
        <begin>0</begin>
        <end>0</end>
      </timeWindow>
      <unit>m</unit>
      <waveformID channelCode="HHZ" stationCode="THZ" networkCode="NZ" locationCode="10"/>
      <evaluationMode>automatic</evaluationMode>
      <comment>
        <text>W-A(2080)</text>
      </comment>
    </amplitude>
    <amplitude publicID="6827678">
      <type>A</type>
      <amplitude>
        <value>0.000010</value>
      </amplitude>
      <timeWindow>
        <reference>2003-08-21T16:52:32.787Z</reference>
        <begin>0</begin>
        <end>0</end>
      </timeWindow>
      <unit>m/s</unit>
      <waveformID channelCode="HHZ" stationCode="THZ" networkCode="NZ" locationCode="10"/>
      <evaluationMode>automatic</evaluationMode>
      <comment>
        <text>PGV</text>
      </comment>
    </amplitude>
    <amplitude publicID="6827956">
      <type>A</type>
      <amplitude>
        <value>1865.619000</value>
      </amplitude>
      <timeWindow>
        <reference>2003-08-21T16:51:34.135Z</reference>
        <begin>0</begin>
        <end>0</end>
      </timeWindow>
      <unit>dimensionless</unit>
      <waveformID channelCode="HHZ" stationCode="QRZ" networkCode="NZ" locationCode="10"/>
      <evaluationMode>manual</evaluationMode>
    </amplitude>
    <amplitude publicID="6827957">
      <type>A</type>
      <amplitude>
        <value>0.000598</value>
      </amplitude>
      <timeWindow>
        <reference>2003-08-21T16:51:33.635Z</reference>
        <begin>0</begin>
        <end>0</end>
      </timeWindow>
      <unit>m</unit>
      <waveformID channelCode="HHZ" stationCode="QRZ" networkCode="NZ" locationCode="10"/>
      <evaluationMode>manual</evaluationMode>
      <comment>
        <text>W-A(2080)</text>
      </comment>
    </amplitude>
    <amplitude publicID="6827959">
      <type>A</type>
      <amplitude>
        <value>0.000196</value>
      </amplitude>
      <timeWindow>
        <reference>2003-08-21T16:51:34.105Z</reference>
        <begin>0</begin>
        <end>0</end>
      </timeWindow>
      <unit>m/(s*s)</unit>
      <waveformID channelCode="HHZ" stationCode="QRZ" networkCode="NZ" locationCode="10"/>
      <evaluationMode>manual</evaluationMode>
      <comment>
        <text>PGA</text>
      </comment>
    </amplitude>
    <amplitude publicID="6827960">
      <type>A</type>
      <amplitude>
        <value>2253.835000</value>
      </amplitude>
      <timeWindow>
        <reference>2003-08-21T16:52:41.035Z</reference>
        <begin>0</begin>
        <end>0</end>
      </timeWindow>
      <unit>dimensionless</unit>
      <waveformID channelCode="HHN" stationCode="QRZ" networkCode="NZ" locationCode="10"/>
      <evaluationMode>manual</evaluationMode>
    </amplitude>
    <amplitude publicID="6827961">
      <type>AML</type>
      <amplitude>
        <value>0.000469</value>
      </amplitude>
      <timeWindow>
        <reference>2003-08-21T16:52:40.975Z</reference>
        <begin>0</begin>
        <end>0</end>
      </timeWindow>
      <unit>m</unit>
      <waveformID channelCode="HHN" stationCode="QRZ" networkCode="NZ" locationCode="10"/>
      <evaluationMode>manual</evaluationMode>
      <comment>
        <text>W-A(2080)</text>
      </comment>
    </amplitude>
    <amplitude publicID="6827962">
      <type>A</type>
      <amplitude>
        <value>0.000010</value>
      </amplitude>
      <timeWindow>
        <reference>2003-08-21T16:52:41.195Z</reference>
        <begin>0</begin>
        <end>0</end>
      </timeWindow>
      <unit>m/s</unit>
      <waveformID channelCode="HHN" stationCode="QRZ" networkCode="NZ" locationCode="10"/>
      <evaluationMode>manual</evaluationMode>
      <comment>
        <text>PGV</text>
      </comment>
    </amplitude>
    <amplitude publicID="6827963">
      <type>A</type>
      <amplitude>
        <value>0.000196</value>
      </amplitude>
      <timeWindow>
        <reference>2003-08-21T16:52:41.135Z</reference>
        <begin>0</begin>
        <end>0</end>
      </timeWindow>
      <unit>m/(s*s)</unit>
      <waveformID channelCode="HHN" stationCode="QRZ" networkCode="NZ" locationCode="10"/>
      <evaluationMode>manual</evaluationMode>
      <comment>
        <text>PGA</text>
      </comment>
    </amplitude>
    <amplitude publicID="6827964">
      <type>A</type>
      <amplitude>
        <value>2093.889000</value>
      </amplitude>
      <timeWindow>
        <reference>2003-08-21T16:52:38.675Z</reference>
        <begin>0</begin>
        <end>0</end>
      </timeWindow>
      <unit>dimensionless</unit>
      <waveformID channelCode="HHE" stationCode="QRZ" networkCode="NZ" locationCode="10"/>
      <evaluationMode>manual</evaluationMode>
    </amplitude>
    <amplitude publicID="6827965">
      <type>AML</type>
      <amplitude>
        <value>0.000552</value>
      </amplitude>
      <timeWindow>
        <reference>2003-08-21T16:52:37.725Z</reference>
        <begin>0</begin>
        <end>0</end>
      </timeWindow>
      <unit>m</unit>
      <waveformID channelCode="HHE" stationCode="QRZ" networkCode="NZ" locationCode="10"/>
      <evaluationMode>manual</evaluationMode>
      <comment>
        <text>W-A(2080)</text>
      </comment>
    </amplitude>
    <amplitude publicID="6827966">
      <type>A</type>
      <amplitude>
        <value>0.000010</value>
      </amplitude>
      <timeWindow>
        <reference>2003-08-21T16:52:38.695Z</reference>
        <begin>0</begin>
        <end>0</end>
      </timeWindow>
      <unit>m/s</unit>
      <waveformID channelCode="HHE" stationCode="QRZ" networkCode="NZ" locationCode="10"/>
