<?xml version="1.0" encoding="UTF-8"?>
<seiscomp xmlns="http://geofon.gfz-potsdam.de/ns/seiscomp3-schema/0.6" version="0.6">
  <EventParameters>
    <pick publicID="20130202.084036.53-NZ.PYZ.10.HHZ">
      <time>
        <value>2013-02-02T08:40:36.538391Z</value>
      </time>
      <waveformID networkCode="NZ" stationCode="PYZ" locationCode="10" channelCode="HHZ"/>
      <methodID>Trigger</methodID>
      <phaseHint>P</phaseHint>
      <evaluationMode>automatic</evaluationMode>
      <creationInfo>
        <agencyID>WEL(GNS_Primary)</agencyID>
        <author>scautopick@scz-ak.geonet.org.nz</author>
        <creationTime>2013-02-02T08:40:38.819902Z</creationTime>
      </creationInfo>
    </pick>
    <pick publicID="20130202.084045.58-NZ.DCZ.10.HHZ">
      <time>
        <value>2013-02-02T08:40:45.588394Z</value>
      </time>
      <waveformID networkCode="NZ" stationCode="DCZ" locationCode="10" channelCode="HHZ"/>
      <methodID>Trigger</methodID>
      <phaseHint>P</phaseHint>
      <evaluationMode>automatic</evaluationMode>
      <creationInfo>
        <agencyID>WEL(GNS_Primary)</agencyID>
        <author>scautopick@scz-ak.geonet.org.nz</author>
        <creationTime>2013-02-02T08:40:51.527926Z</creationTime>
      </creationInfo>
    </pick>
    <pick publicID="20130202.084050.78-NZ.WHZ.10.HHZ">
      <time>
        <value>2013-02-02T08:40:50.784136Z</value>
      </time>
      <waveformID networkCode="NZ" stationCode="WHZ" locationCode="10" channelCode="HHZ"/>
      <methodID>Trigger</methodID>
      <phaseHint>P</phaseHint>
      <evaluationMode>automatic</evaluationMode>
      <creationInfo>
        <agencyID>WEL(GNS_Primary)</agencyID>
        <author>scautopick@scz-ak.geonet.org.nz</author>
        <creationTime>2013-02-02T08:40:56.673778Z</creationTime>
      </creationInfo>
    </pick>
    <pick publicID="20130202.084051.34-NZ.APZ.10.HHZ">
      <time>
        <value>2013-02-02T08:40:51.348394Z</value>
      </time>
      <waveformID networkCode="NZ" stationCode="APZ" locationCode="10" channelCode="HHZ"/>
      <methodID>Trigger</methodID>
      <phaseHint>P</phaseHint>
      <evaluationMode>automatic</evaluationMode>
      <creationInfo>
        <agencyID>WEL(GNS_Primary)</agencyID>
        <author>scautopick@scz-ak.geonet.org.nz</author>
        <creationTime>2013-02-02T08:40:54.656192Z</creationTime>
      </creationInfo>
    </pick>
    <pick publicID="20130202.084056.51-NZ.MLZ.10.HHZ">
      <time>
        <value>2013-02-02T08:40:56.518869Z</value>
      </time>
      <waveformID networkCode="NZ" stationCode="MLZ" locationCode="10" channelCode="HHZ"/>
      <methodID>Trigger</methodID>
      <phaseHint>P</phaseHint>
      <evaluationMode>automatic</evaluationMode>
      <creationInfo>
        <agencyID>WEL(GNS_Primary)</agencyID>
        <author>scautopick@scz-ak.geonet.org.nz</author>
        <creationTime>2013-02-02T08:41:00.20379Z</creationTime>
      </creationInfo>
    </pick>
    <pick publicID="20130202.084101.68-NZ.SYZ.10.HHZ">
      <time>
        <value>2013-02-02T08:41:01.688386Z</value>
      </time>
      <waveformID networkCode="NZ" stationCode="SYZ" locationCode="10" channelCode="HHZ"/>
      <methodID>Trigger</methodID>
      <phaseHint>P</phaseHint>
      <evaluationMode>automatic</evaluationMode>
      <creationInfo>
        <agencyID>WEL(GNS_Primary)</agencyID>
        <author>scautopick@scz-ak.geonet.org.nz</author>
        <creationTime>2013-02-02T08:41:05.245501Z</creationTime>
      </creationInfo>
    </pick>
    <pick publicID="20130202.084100.79-NZ.MSZ.10.HHZ">
      <time>
        <value>2013-02-02T08:41:00.798393Z</value>
      </time>
      <waveformID networkCode="NZ" stationCode="MSZ" locationCode="10" channelCode="HHZ"/>
      <methodID>Trigger</methodID>
      <phaseHint>P</phaseHint>
      <evaluationMode>automatic</evaluationMode>
      <creationInfo>
        <agencyID>WEL(GNS_Primary)</agencyID>
        <author>scautopick@scz-ak.geonet.org.nz</author>
        <creationTime>2013-02-02T08:41:08.170089Z</creationTime>
      </creationInfo>
    </pick>
    <pick publicID="20130202.084106.82-NZ.TUZ.10.HHZ">
      <time>
        <value>2013-02-02T08:41:06.828392Z</value>
      </time>
      <waveformID networkCode="NZ" stationCode="TUZ" locationCode="10" channelCode="HHZ"/>
      <methodID>Trigger</methodID>
      <phaseHint>P</phaseHint>
      <evaluationMode>automatic</evaluationMode>
      <creationInfo>
        <agencyID>WEL(GNS_Primary)</agencyID>
        <author>scautopick@scz-ak.geonet.org.nz</author>
        <creationTime>2013-02-02T08:41:09.984116Z</creationTime>
      </creationInfo>
    </pick>
    <pick publicID="20130202.084107.74-NZ.EAZ.10.HHZ">
      <time>
        <value>2013-02-02T08:41:07.748392Z</value>
      </time>
      <waveformID networkCode="NZ" stationCode="EAZ" locationCode="10" channelCode="HHZ"/>
      <methodID>Trigger</methodID>
      <phaseHint>P</phaseHint>
      <evaluationMode>automatic</evaluationMode>
      <creationInfo>
        <agencyID>WEL(GNS_Primary)</agencyID>
        <author>scautopick@scz-ak.geonet.org.nz</author>
        <creationTime>2013-02-02T08:41:11.598833Z</creationTime>
      </creationInfo>
    </pick>
    <pick publicID="20130202.084109.01-NZ.WKZ.10.HHZ">
      <time>
        <value>2013-02-02T08:41:09.018393Z</value>
      </time>
      <waveformID networkCode="NZ" stationCode="WKZ" locationCode="10" channelCode="HHZ"/>
      <methodID>Trigger</methodID>
      <phaseHint>P</phaseHint>
      <evaluationMode>automatic</evaluationMode>
      <creationInfo>
        <agencyID>WEL(GNS_Primary)</agencyID>
        <author>scautopick@scz-ak.geonet.org.nz</author>
        <creationTime>2013-02-02T08:41:16.134104Z</creationTime>
      </creationInfo>
    </pick>
    <amplitude publicID="Amplitude#20130202084139.88258.7792321">
      <type>ML</type>
      <amplitude>
        <value>157.21217</value>
        <lowerUncertainty>48.880402</lowerUncertainty>
        <upperUncertainty>48.880402</upperUncertainty>
      </amplitude>
      <timeWindow>
        <reference>2013-02-02T08:40:43.58839Z</reference>
        <begin>-0.139999</begin>
        <end>0.14</end>
      </timeWindow>
      <pickID>20130202.084036.53-NZ.PYZ.10.HHZ</pickID>
      <waveformID networkCode="NZ" stationCode="PYZ" locationCode="10" channelCode="HH"/>
      <creationInfo>
        <agencyID>WEL(GNS_Primary)</agencyID>
        <author>scamp@scz-ak.geonet.org.nz</author>
        <creationTime>2013-02-02T08:41:39.882673Z</creationTime>
      </creationInfo>
    </amplitude>
    <amplitude publicID="Amplitude#20130202084139.887222.7792323">
      <type>MLv</type>
      <amplitude>
        <value>90.76475</value>
      </amplitude>
      <timeWindow>
        <reference>2013-02-02T08:40:37.03839Z</reference>
        <begin>0</begin>
        <end>0</end>
      </timeWindow>
      <snr>312.03511</snr>
      <pickID>20130202.084036.53-NZ.PYZ.10.HHZ</pickID>
      <waveformID networkCode="NZ" stationCode="PYZ" locationCode="10" channelCode="HHZ"/>
      <creationInfo>
        <agencyID>WEL(GNS_Primary)</agencyID>
        <author>scamp@scz-ak.geonet.org.nz</author>
        <creationTime>2013-02-02T08:41:39.887272Z</creationTime>
      </creationInfo>
    </amplitude>
    <origin publicID="NLL.20130202084122.762141.2202850">
      <time>
        <value>2013-02-02T08:40:30.069235Z</value>
      </time>
      <latitude>
        <value>-46.407132</value>
        <uncertainty>44.311188</uncertainty>
      </latitude>
      <longitude>
        <value>166.57807</value>
        <uncertainty>29.808273</uncertainty>
      </longitude>
      <depth>
        <value>5.46875</value>
        <uncertainty>22.629227</uncertainty>
      </depth>
      <methodID>NonLinLoc</methodID>
      <earthModelID>nz3drx</earthModelID>
      <quality>
        <associatedPhaseCount>10</associatedPhaseCount>
        <usedPhaseCount>10</usedPhaseCount>
        <usedStationCount>10</usedStationCount>
        <standardError>0.3105013</standardError>
        <azimuthalGap>259.15404</azimuthalGap>
        <secondaryAzimuthalGap>278.00224</secondaryAzimuthalGap>
        <groundTruthLevel>-</groundTruthLevel>
        <maximumDistance>2.2494508</maximumDistance>
        <minimumDistance>0.24475046</minimumDistance>
        <medianDistance>1.6086485</medianDistance>
      </quality>
      <uncertainty>
        <horizontalUncertainty>80.135214</horizontalUncertainty>
        <minHorizontalUncertainty>11.746523</minHorizontalUncertainty>
        <maxHorizontalUncertainty>80.135214</maxHorizontalUncertainty>
        <azimuthMaxHorizontalUncertainty>33.414982</azimuthMaxHorizontalUncertainty>
        <confidenceEllipsoid>
          <semiMajorAxisLength>102.97359</semiMajorAxisLength>
          <semiMinorAxisLength>14.346756</semiMinorAxisLength>
          <semiIntermediateAxisLength>32.647676</semiIntermediateAxisLength>
          <majorAxisPlunge>106.25503</majorAxisPlunge>
          <majorAxisAzimuth>16.703889</majorAxisAzimuth>
          <majorAxisRotation>85.407417</majorAxisRotation>
        </confidenceEllipsoid>
      </uncertainty>
      <evaluationMode>automatic</evaluationMode>
      <creationInfo>
        <agencyID>WEL(GNS_Primary)</agencyID>
        <author>screloc@scguiz-ak</author>
        <creationTime>2013-02-02T08:41:24.558474Z</creationTime>
      </creationInfo>
      <arrival>
        <pickID>20130202.084036.53-NZ.PYZ.10.HHZ</pickID>
        <phase>P</phase>
        <timeCorrection>0</timeCorrection>
        <azimuth>12.241502</azimuth>
        <distance>0.24475046</distance>
        <timeResidual>-1.6342483e-13</timeResidual>
        <weight>1.666024</weight>
      </arrival>
      <arrival>
        <pickID>20130202.084045.58-NZ.DCZ.10.HHZ</pickID>
        <phase>P</phase>
        <timeCorrection>0</timeCorrection>
        <azimuth>19.189752</azimuth>
        <distance>0.99598981</distance>
        <timeResidual>-4.3233792</timeResidual>
        <weight>0.010010555</weight>
      </arrival>
      <arrival>
        <pickID>20130202.084050.78-NZ.WHZ.10.HHZ</pickID>
        <phase>P</phase>
        <timeCorrection>0</timeCorrection>
        <azimuth>60.616725</azimuth>
        <distance>1.0456177</distance>
        <timeResidual>0.032706719</timeResidual>
        <weight>1.4900836</weight>
      </arrival>
      <arrival>
        <pickID>20130202.084051.34-NZ.APZ.10.HHZ</pickID>
        <phase>P</phase>
        <timeCorrection>0</timeCorrection>
        <azimuth>113.08746</azimuth>
        <distance>1.0868277</distance>
        <timeResidual>-0.035570087</timeResidual>
        <weight>1.4655638</weight>
      </arrival>
      <arrival>
        <pickID>20130202.084056.51-NZ.MLZ.10.HHZ</pickID>
        <phase>P</phase>
        <timeCorrection>0</timeCorrection>
        <azimuth>43.856606</azimuth>
        <distance>1.4405256</distance>
        <timeResidual>-0.2366731</timeResidual>
        <weight>1.2517046</weight>
      </arrival>
      <arrival>
        <pickID>20130202.084101.68-NZ.SYZ.10.HHZ</pickID>
        <phase>P</phase>
        <timeCorrection>0</timeCorrection>
        <azimuth>94.239264</azimuth>
        <distance>1.7767715</distance>
        <timeResidual>-0.058771229</timeResidual>
        <weight>1.2460328</weight>
      </arrival>
      <arrival>
        <pickID>20130202.084100.79-NZ.MSZ.10.HHZ</pickID>
        <phase>P</phase>
        <timeCorrection>0</timeCorrection>
        <azimuth>25.331998</azimuth>
        <distance>1.9160309</distance>
        <timeResidual>-2.3902824</timeResidual>
        <weight>0.039698379</weight>
      </arrival>
      <arrival>
        <pickID>20130202.084106.82-NZ.TUZ.10.HHZ</pickID>
        <phase>P</phase>
        <timeCorrection>0</timeCorrection>
        <azimuth>77.78588</azimuth>
        <distance>2.1338236</distance>
        <timeResidual>0.15509466</timeResidual>
        <weight>1.1666833</weight>
      </arrival>
      <arrival>
        <pickID>20130202.084107.74-NZ.EAZ.10.HHZ</pickID>
        <phase>P</phase>
        <timeCorrection>0</timeCorrection>
        <azimuth>57.281938</azimuth>
        <distance>2.1724142</distance>
        <timeResidual>0.62308355</timeResidual>
        <weight>0.97230498</weight>
      </arrival>
      <arrival>
        <pickID>20130202.084109.01-NZ.WKZ.10.HHZ</pickID>
        <phase>P</phase>
        <timeCorrection>0</timeCorrection>
        <azimuth>45.447772</azimuth>
        <distance>2.2494508</distance>
        <timeResidual>1.0209484</timeResidual>
        <weight>0.69189414</weight>
      </arrival>
      <stationMagnitude publicID="NLL.20130202084122.762141.2202850#staMag.ML#NZ.PYZ">
        <magnitude>
          <value>4.1849403</value>
        </magnitude>
        <type>ML</type>
        <amplitudeID>Amplitude#20130202084139.88258.7792321</amplitudeID>
        <waveformID networkCode="NZ" stationCode="PYZ" locationCode="10" channelCode="HH"/>
        <creationInfo>
          <agencyID>WEL(GNS_Primary)</agencyID>
          <author>scmag@scz-ak.geonet.org.nz</author>
          <creationTime>2013-02-02T08:41:39.88698Z</creationTime>
        </creationInfo>
      </stationMagnitude>
      <stationMagnitude publicID="NLL.20130202084122.762141.2202850#staMag.MLv#NZ.PYZ">
        <magnitude>
          <value>3.9463714</value>
        </magnitude>
        <type>MLv</type>
        <amplitudeID>Amplitude#20130202084139.887222.7792323</amplitudeID>
        <waveformID networkCode="NZ" stationCode="PYZ" locationCode="10" channelCode="HHZ"/>
        <creationInfo>
          <agencyID>WEL(GNS_Primary)</agencyID>
          <author>scmag@scz-ak.geonet.org.nz</author>
          <creationTime>2013-02-02T08:41:39.890551Z</creationTime>
        </creationInfo>
      </stationMagnitude>
      <magnitude publicID="NLL.20130202084122.762141.2202850#netMag.ML">
        <magnitude>
          <value>4.1849403</value>
          <uncertainty>0</uncertainty>
        </magnitude>
        <type>ML</type>
        <methodID>mean</methodID>
        <stationCount>1</stationCount>
        <creationInfo>
          <agencyID>WEL(GNS_Primary)</agencyID>
          <author>scmag@scz-ak.geonet.org.nz</author>
          <creationTime>2013-02-02T08:41:39.887022Z</creationTime>
        </creationInfo>
        <stationMagnitudeContribution>
          <stationMagnitudeID>NLL.20130202084122.762141.2202850#staMag.ML#NZ.PYZ</stationMagnitudeID>
          <weight>1</weight>
        </stationMagnitudeContribution>
      </magnitude>
      <magnitude publicID="NLL.20130202084122.762141.2202850#netMag.MLv">
        <magnitude>
          <value>3.9463714</value>
          <uncertainty>0</uncertainty>
        </magnitude>
        <type>MLv</type>
        <methodID>mean</methodID>
        <stationCount>1</stationCount>
        <creationInfo>
          <agencyID>WEL(GNS_Primary)</agencyID>
          <author>scmag@scz-ak.geonet.org.nz</author>
          <creationTime>2013-02-02T08:41:39.890607Z</creationTime>
        </creationInfo>
        <stationMagnitudeContribution>
          <stationMagnitudeID>NLL.20130202084122.762141.2202850#staMag.MLv#NZ.PYZ</stationMagnitudeID>
          <weight>1</weight>
        </stationMagnitudeContribution>
      </magnitude>
      <magnitude publicID="NLL.20130202084122.762141.2202850#netMag.M">
        <magnitude>
          <value>3.9463714</value>
        </magnitude>
        <type>M</type>
        <methodID>weighted average</methodID>
        <stationCount>1</stationCount>
        <creationInfo>
          <agencyID>WEL(GNS_Primary)</agencyID>
          <author>scmag@scz-ak.geonet.org.nz</author>
          <creationTime>2013-02-02T08:41:39.890678Z</creationTime>
        </creationInfo>
      </magnitude>
    </origin>
    <event publicID="2013p087463">
      <preferredOriginID>NLL.20130202084122.762141.2202850</preferredOriginID>
      <preferredMagnitudeID>NLL.20130202084122.762141.2202850#netMag.M</preferredMagnitudeID>
      <creationInfo>
        <agencyID>WEL(GNS_Primary)</agencyID>
        <author>scevent@scz-ak.geonet.org.nz</author>
        <creationTime>2013-02-02T08:41:23.264381Z</creationTime>
        <modificationTime>2013-02-02T08:41:39.970373Z</modificationTime>
      </creationInfo>
      <originReference>NLL.20130202084122.762141.2202850</originReference>
    </event>
  </EventParameters>
</seiscomp>
