<?xml version="1.0" encoding="UTF-8"?>

<seiscomp xmlns="http://geofon.gfz-potsdam.de/ns/seiscomp3-schema/0.7" version="0.7">
  <EventParameters>
    <pick publicID="7281988">
      <time>
        <value>2010-09-03T16:35:50.870Z</value>
        <upperUncertainty>0.1</upperUncertainty>
      </time>
      <waveformID channelCode="HNZ" stationCode="CSHS" networkCode="NZ" locationCode="20"/>
      <phaseHint>Pb</phaseHint>
      <polarity>negative</polarity>
      <evaluationMode>manual</evaluationMode>
      <evaluationStatus>rejected</evaluationStatus>
    </pick>
    <pick publicID="7913072">
      <time>
        <value>2010-09-03T16:35:46.526Z</value>
        <lowerUncertainty>0.25</lowerUncertainty>
        <upperUncertainty>0.5</upperUncertainty>
      </time>
      <waveformID channelCode="HN2" stationCode="GDLC" networkCode="NZ" locationCode="20"/>
      <phaseHint>Sg</phaseHint>
      <evaluationMode>manual</evaluationMode>
      <evaluationStatus>confirmed</evaluationStatus>
    </pick>
    <pick publicID="7913081">
      <time>
        <value>2010-09-03T16:35:46.938Z</value>
        <upperUncertainty>0.1</upperUncertainty>
      </time>
      <waveformID channelCode="HNZ" stationCode="TPLC" networkCode="NZ" locationCode="20"/>
      <phaseHint>Pg</phaseHint>
      <polarity>positive</polarity>
      <evaluationMode>manual</evaluationMode>
      <evaluationStatus>confirmed</evaluationStatus>
    </pick>
    <pick publicID="8675390">
      <time>
        <value>2010-09-03T16:35:53.177Z</value>
        <lowerUncertainty>0.25</lowerUncertainty>
        <upperUncertainty>0.5</upperUncertainty>
      </time>
      <waveformID channelCode="HHN" stationCode="CRLZ" networkCode="NZ" locationCode="10"/>
      <phaseHint>Sg</phaseHint>
      <evaluationMode>manual</evaluationMode>
      <evaluationStatus>confirmed</evaluationStatus>
    </pick>
    <pick publicID="9014177">
      <time>
        <value>2010-09-03T16:35:56.757Z</value>
        <upperUncertainty>0.1</upperUncertainty>
      </time>
      <waveformID channelCode="HHZ" stationCode="LTZ" networkCode="NZ" locationCode="10"/>
      <onset>impulsive</onset>
      <phaseHint>Pb</phaseHint>
      <polarity>positive</polarity>
      <evaluationMode>manual</evaluationMode>
      <evaluationStatus>rejected</evaluationStatus>
    </pick>
    <pick publicID="9014191">
      <time>
        <value>2010-09-03T16:36:11.908Z</value>
        <lowerUncertainty>0.1</lowerUncertainty>
        <upperUncertainty>0.25</upperUncertainty>
      </time>
      <waveformID channelCode="HHZ" stationCode="FOZ" networkCode="NZ" locationCode="10"/>
      <phaseHint>Pn</phaseHint>
      <evaluationMode>manual</evaluationMode>
      <evaluationStatus>rejected</evaluationStatus>
    </pick>
    <pick publicID="8675388">
      <time>
        <value>2010-09-03T16:35:48.560Z</value>
        <upperUncertainty>0.1</upperUncertainty>
      </time>
      <waveformID channelCode="HNZ" stationCode="CMHS" networkCode="NZ" locationCode="20"/>
      <phaseHint>Pb</phaseHint>
      <polarity>negative</polarity>
      <evaluationMode>manual</evaluationMode>
      <evaluationStatus>confirmed</evaluationStatus>
    </pick>
    <pick publicID="9014186">
      <time>
        <value>2010-09-03T16:36:22.338Z</value>
        <lowerUncertainty>0.1</lowerUncertainty>
        <upperUncertainty>0.25</upperUncertainty>
      </time>
      <waveformID channelCode="HHZ" stationCode="OPZ" networkCode="NZ" locationCode="10"/>
      <phaseHint>Pn</phaseHint>
      <evaluationMode>manual</evaluationMode>
      <evaluationStatus>rejected</evaluationStatus>
    </pick>
    <pick publicID="7229909">
      <time>
        <value>2010-09-03T16:35:44.135Z</value>
        <upperUncertainty>0.1</upperUncertainty>
      </time>
      <waveformID channelCode="HNZ" stationCode="DFHS" networkCode="NZ" locationCode="20"/>
      <phaseHint>Pg</phaseHint>
      <polarity>negative</polarity>
      <evaluationMode>manual</evaluationMode>
      <evaluationStatus>confirmed</evaluationStatus>
    </pick>
    <pick publicID="7240397">
      <time>
        <value>2010-09-03T16:35:45.455Z</value>
        <lowerUncertainty>0.5</lowerUncertainty>
        <upperUncertainty>1.0</upperUncertainty>
      </time>
      <waveformID channelCode="HN1" stationCode="DFHS" networkCode="NZ" locationCode="20"/>
      <phaseHint>Sg</phaseHint>
      <evaluationMode>manual</evaluationMode>
      <evaluationStatus>confirmed</evaluationStatus>
    </pick>
    <pick publicID="9014181">
      <time>
        <value>2010-09-03T16:36:07.177Z</value>
        <upperUncertainty>0.1</upperUncertainty>
      </time>
      <waveformID channelCode="HHZ" stationCode="KHZ" networkCode="NZ" locationCode="10"/>
      <phaseHint>Pn</phaseHint>
      <evaluationMode>manual</evaluationMode>
      <evaluationStatus>rejected</evaluationStatus>
    </pick>
    <pick publicID="9014185">
      <time>
        <value>2010-09-03T16:36:20.928Z</value>
        <upperUncertainty>0.1</upperUncertainty>
      </time>
      <waveformID channelCode="EHZ" stationCode="TUWZ" networkCode="NZ" locationCode="10"/>
      <phaseHint>Pn</phaseHint>
      <polarity>positive</polarity>
      <evaluationMode>manual</evaluationMode>
      <evaluationStatus>rejected</evaluationStatus>
    </pick>
    <pick publicID="7240395">
      <time>
        <value>2010-09-03T16:35:50.068Z</value>
        <lowerUncertainty>0.25</lowerUncertainty>
        <upperUncertainty>0.5</upperUncertainty>
      </time>
      <waveformID channelCode="HHN" stationCode="OXZ" networkCode="NZ" locationCode="10"/>
      <phaseHint>Sg</phaseHint>
      <evaluationMode>manual</evaluationMode>
      <evaluationStatus>confirmed</evaluationStatus>
    </pick>
    <pick publicID="7281982">
      <time>
        <value>2010-09-03T16:35:46.648Z</value>
        <upperUncertainty>0.1</upperUncertainty>
      </time>
      <waveformID channelCode="HHZ" stationCode="OXZ" networkCode="NZ" locationCode="10"/>
      <phaseHint>Pg</phaseHint>
      <polarity>negative</polarity>
      <evaluationMode>manual</evaluationMode>
      <evaluationStatus>confirmed</evaluationStatus>
    </pick>
    <pick publicID="7913077">
      <time>
        <value>2010-09-03T16:35:50.554Z</value>
        <lowerUncertainty>0.1</lowerUncertainty>
        <upperUncertainty>0.25</upperUncertainty>
      </time>
      <waveformID channelCode="HNZ" stationCode="LPCC" networkCode="NZ" locationCode="20"/>
      <phaseHint>Pb</phaseHint>
      <polarity>negative</polarity>
      <evaluationMode>manual</evaluationMode>
      <evaluationStatus>rejected</evaluationStatus>
    </pick>
    <pick publicID="7913079">
      <time>
        <value>2010-09-03T16:35:47.656Z</value>
        <lowerUncertainty>0.5</lowerUncertainty>
        <upperUncertainty>1.0</upperUncertainty>
      </time>
      <waveformID channelCode="HN1" stationCode="DSLC" networkCode="NZ" locationCode="20"/>
      <phaseHint>Sg</phaseHint>
      <evaluationMode>manual</evaluationMode>
      <evaluationStatus>confirmed</evaluationStatus>
    </pick>
    <pick publicID="8675389">
      <time>
        <value>2010-09-03T16:35:48.537Z</value>
        <upperUncertainty>0.1</upperUncertainty>
      </time>
      <waveformID channelCode="HHZ" stationCode="CRLZ" networkCode="NZ" locationCode="10"/>
      <phaseHint>Pb</phaseHint>
      <polarity>negative</polarity>
      <evaluationMode>manual</evaluationMode>
      <evaluationStatus>confirmed</evaluationStatus>
    </pick>
    <pick publicID="9014178">
      <time>
        <value>2010-09-03T16:36:03.103Z</value>
        <upperUncertainty>0.1</upperUncertainty>
      </time>
      <waveformID channelCode="HHZ" stationCode="WVZ" networkCode="NZ" locationCode="10"/>
      <phaseHint>Pb</phaseHint>
      <evaluationMode>manual</evaluationMode>
      <evaluationStatus>rejected</evaluationStatus>
    </pick>
    <pick publicID="9014179">
      <time>
        <value>2010-09-03T16:35:57.959Z</value>
        <upperUncertainty>0.1</upperUncertainty>
      </time>
      <waveformID channelCode="HHZ" stationCode="RPZ" networkCode="NZ" locationCode="10"/>
      <phaseHint>Pb</phaseHint>
      <evaluationMode>manual</evaluationMode>
      <evaluationStatus>rejected</evaluationStatus>
    </pick>
    <pick publicID="9014182">
      <time>
        <value>2010-09-03T16:36:12.103Z</value>
        <lowerUncertainty>0.1</lowerUncertainty>
        <upperUncertainty>0.25</upperUncertainty>
      </time>
      <waveformID channelCode="HHZ" stationCode="THZ" networkCode="NZ" locationCode="10"/>
      <phaseHint>Pn</phaseHint>
      <evaluationMode>manual</evaluationMode>
      <evaluationStatus>rejected</evaluationStatus>
    </pick>
    <pick publicID="9014188">
      <time>
        <value>2010-09-03T16:36:10.040Z</value>
        <lowerUncertainty>0.1</lowerUncertainty>
        <upperUncertainty>0.25</upperUncertainty>
      </time>
      <waveformID channelCode="HHZ" stationCode="LBZ" networkCode="NZ" locationCode="10"/>
      <phaseHint>Pn</phaseHint>
      <evaluationMode>manual</evaluationMode>
      <evaluationStatus>rejected</evaluationStatus>
    </pick>
    <pick publicID="7281983">
      <time>
        <value>2010-09-03T16:35:49.348Z</value>
        <upperUncertainty>0.1</upperUncertainty>
      </time>
      <waveformID channelCode="HHZ" stationCode="MQZ" networkCode="NZ" locationCode="10"/>
      <phaseHint>Pb</phaseHint>
      <polarity>negative</polarity>
      <evaluationMode>manual</evaluationMode>
      <evaluationStatus>rejected</evaluationStatus>
    </pick>
    <pick publicID="7913073">
      <time>
        <value>2010-09-03T16:35:44.276Z</value>
        <upperUncertainty>0.1</upperUncertainty>
      </time>
      <waveformID channelCode="HNZ" stationCode="GDLC" networkCode="NZ" locationCode="20"/>
      <phaseHint>Pg</phaseHint>
      <polarity>positive</polarity>
      <evaluationMode>manual</evaluationMode>
      <evaluationStatus>confirmed</evaluationStatus>
    </pick>
    <pick publicID="8675386">
      <time>
        <value>2010-09-03T16:35:48.740Z</value>
        <upperUncertainty>0.1</upperUncertainty>
      </time>
      <waveformID channelCode="HNZ" stationCode="PPHS" networkCode="NZ" locationCode="20"/>
      <phaseHint>Pb</phaseHint>
      <polarity>negative</polarity>
      <evaluationMode>manual</evaluationMode>
      <evaluationStatus>confirmed</evaluationStatus>
    </pick>
    <pick publicID="9014184">
      <time>
        <value>2010-09-03T16:36:18.888Z</value>
        <lowerUncertainty>0.1</lowerUncertainty>
        <upperUncertainty>0.25</upperUncertainty>
      </time>
      <waveformID channelCode="EHZ" stationCode="CMWZ" networkCode="NZ" locationCode="10"/>
      <phaseHint>Pn</phaseHint>
      <evaluationMode>manual</evaluationMode>
      <evaluationStatus>rejected</evaluationStatus>
    </pick>
    <pick publicID="9014189">
      <time>
        <value>2010-09-03T16:36:21.578Z</value>
        <upperUncertainty>0.1</upperUncertainty>
      </time>
      <waveformID channelCode="HHZ" stationCode="NNZ" networkCode="NZ" locationCode="10"/>
      <phaseHint>Pn</phaseHint>
      <polarity>positive</polarity>
      <evaluationMode>manual</evaluationMode>
      <evaluationStatus>rejected</evaluationStatus>
    </pick>
    <pick publicID="7913075">
      <time>
        <value>2010-09-03T16:35:45.909Z</value>
        <lowerUncertainty>0.1</lowerUncertainty>
        <upperUncertainty>0.25</upperUncertainty>
      </time>
      <waveformID channelCode="HNZ" stationCode="ROLC" networkCode="NZ" locationCode="20"/>
      <phaseHint>Pg</phaseHint>
      <evaluationMode>manual</evaluationMode>
      <evaluationStatus>confirmed</evaluationStatus>
    </pick>
    <pick publicID="7913076">
      <time>
        <value>2010-09-03T16:35:45.661Z</value>
        <upperUncertainty>0.1</upperUncertainty>
      </time>
      <waveformID channelCode="HNZ" stationCode="HORC" networkCode="NZ" locationCode="20"/>
      <phaseHint>Pg</phaseHint>
      <polarity>negative</polarity>
      <evaluationMode>manual</evaluationMode>
      <evaluationStatus>confirmed</evaluationStatus>
    </pick>
    <pick publicID="7913078">
      <time>
        <value>2010-09-03T16:35:47.390Z</value>
        <lowerUncertainty>0.1</lowerUncertainty>
        <upperUncertainty>0.25</upperUncertainty>
      </time>
      <waveformID channelCode="HNZ" stationCode="RKAC" networkCode="NZ" locationCode="20"/>
      <phaseHint>Pg</phaseHint>
      <evaluationMode>manual</evaluationMode>
      <evaluationStatus>confirmed</evaluationStatus>
    </pick>
    <pick publicID="7913080">
      <time>
        <value>2010-09-03T16:35:45.346Z</value>
        <lowerUncertainty>0.1</lowerUncertainty>
        <upperUncertainty>0.25</upperUncertainty>
      </time>
      <waveformID channelCode="HNZ" stationCode="DSLC" networkCode="NZ" locationCode="20"/>
      <phaseHint>Pg</phaseHint>
      <evaluationMode>manual</evaluationMode>
      <evaluationStatus>confirmed</evaluationStatus>
    </pick>
    <pick publicID="7913082">
      <time>
        <value>2010-09-03T16:35:48.166Z</value>
        <upperUncertainty>0.1</upperUncertainty>
      </time>
      <waveformID channelCode="HNZ" stationCode="SWNC" networkCode="NZ" locationCode="20"/>
      <phaseHint>Pg</phaseHint>
      <polarity>positive</polarity>
      <evaluationMode>manual</evaluationMode>
      <evaluationStatus>confirmed</evaluationStatus>
    </pick>
    <pick publicID="9014183">
      <time>
        <value>2010-09-03T16:36:17.398Z</value>
        <upperUncertainty>0.1</upperUncertainty>
      </time>
      <waveformID channelCode="EHZ" stationCode="BSWZ" networkCode="NZ" locationCode="10"/>
      <phaseHint>Pn</phaseHint>
      <evaluationMode>manual</evaluationMode>
      <evaluationStatus>rejected</evaluationStatus>
    </pick>
    <pick publicID="9014187">
      <time>
        <value>2010-09-03T16:36:21.598Z</value>
        <upperUncertainty>0.1</upperUncertainty>
      </time>
      <waveformID channelCode="HHZ" stationCode="JCZ" networkCode="NZ" locationCode="10"/>
      <phaseHint>Pn</phaseHint>
      <evaluationMode>manual</evaluationMode>
      <evaluationStatus>rejected</evaluationStatus>
    </pick>
    <pick publicID="9014192">
      <time>
        <value>2010-09-03T16:36:11.548Z</value>
        <lowerUncertainty>0.1</lowerUncertainty>
        <upperUncertainty>0.25</upperUncertainty>
      </time>
      <waveformID channelCode="HHZ" stationCode="DSZ" networkCode="NZ" locationCode="10"/>
      <phaseHint>Pn</phaseHint>
      <evaluationMode>manual</evaluationMode>
      <evaluationStatus>rejected</evaluationStatus>
    </pick>
    <pick publicID="7281984">
      <time>
        <value>2010-09-03T16:35:50.320Z</value>
        <upperUncertainty>0.1</upperUncertainty>
      </time>
      <waveformID channelCode="HNZ" stationCode="ASHS" networkCode="NZ" locationCode="20"/>
      <phaseHint>Pb</phaseHint>
      <polarity>positive</polarity>
      <evaluationMode>manual</evaluationMode>
      <evaluationStatus>rejected</evaluationStatus>
    </pick>
    <pick publicID="7281987">
      <time>
        <value>2010-09-03T16:35:47.600Z</value>
        <upperUncertainty>0.1</upperUncertainty>
      </time>
      <waveformID channelCode="HNZ" stationCode="CACS" networkCode="NZ" locationCode="20"/>
      <phaseHint>Pg</phaseHint>
      <evaluationMode>manual</evaluationMode>
      <evaluationStatus>confirmed</evaluationStatus>
    </pick>
    <pick publicID="7913071">
      <time>
        <value>2010-09-03T16:35:49.005Z</value>
        <upperUncertainty>0.1</upperUncertainty>
      </time>
      <waveformID channelCode="HNZ" stationCode="REHS" networkCode="NZ" locationCode="20"/>
      <phaseHint>Pb</phaseHint>
      <polarity>negative</polarity>
      <evaluationMode>manual</evaluationMode>
      <evaluationStatus>rejected</evaluationStatus>
    </pick>
    <pick publicID="7913074">
      <time>
        <value>2010-09-03T16:35:46.954Z</value>
        <upperUncertainty>0.1</upperUncertainty>
      </time>
      <waveformID channelCode="HNZ" stationCode="LINC" networkCode="NZ" locationCode="20"/>
      <phaseHint>Pg</phaseHint>
      <polarity>positive</polarity>
      <evaluationMode>manual</evaluationMode>
      <evaluationStatus>confirmed</evaluationStatus>
    </pick>
    <pick publicID="9014190">
      <time>
        <value>2010-09-03T16:36:22.518Z</value>
        <lowerUncertainty>0.25</lowerUncertainty>
        <upperUncertainty>0.5</upperUncertainty>
      </time>
      <waveformID channelCode="HHZ" stationCode="WKZ" networkCode="NZ" locationCode="10"/>
      <phaseHint>Pn</phaseHint>
      <evaluationMode>manual</evaluationMode>
      <evaluationStatus>rejected</evaluationStatus>
    </pick>
    <pick publicID="7281991">
      <time>
        <value>2010-09-03T16:35:47.300Z</value>
        <upperUncertainty>0.1</upperUncertainty>
      </time>
      <waveformID channelCode="HNZ" stationCode="SPFS" networkCode="NZ" locationCode="20"/>
      <phaseHint>Pg</phaseHint>
      <polarity>negative</polarity>
      <evaluationMode>manual</evaluationMode>
      <evaluationStatus>confirmed</evaluationStatus>
    </pick>
    <pick publicID="8675387">
      <time>
        <value>2010-09-03T16:35:48.670Z</value>
        <upperUncertainty>0.1</upperUncertainty>
      </time>
      <waveformID channelCode="HNZ" stationCode="CBGS" networkCode="NZ" locationCode="20"/>
      <phaseHint>Pb</phaseHint>
      <polarity>negative</polarity>
      <evaluationMode>manual</evaluationMode>
      <evaluationStatus>confirmed</evaluationStatus>
    </pick>
    <pick publicID="9014180">
      <time>
        <value>2010-09-03T16:36:12.248Z</value>
        <lowerUncertainty>0.1</lowerUncertainty>
        <upperUncertainty>0.25</upperUncertainty>
      </time>
      <waveformID channelCode="HHZ" stationCode="ODZ" networkCode="NZ" locationCode="10"/>
      <phaseHint>Pn</phaseHint>
      <evaluationMode>manual</evaluationMode>
      <evaluationStatus>rejected</evaluationStatus>
    </pick>
    <amplitude publicID="27229974">
      <type>A</type>
      <amplitude>
        <value>861094.750000</value>
      </amplitude>
      <timeWindow>
        <reference>2010-09-03T16:38:01.295Z</reference>
        <begin>0</begin>
        <end>0</end>
      </timeWindow>
      <unit>dimensionless</unit>
      <waveformID channelCode="HHN" stationCode="WAZ" networkCode="NZ" locationCode="10"/>
      <evaluationMode>automatic</evaluationMode>
      <comment>
        <text>trace clipped</text>
      </comment>
    </amplitude>
    <amplitude publicID="27229978">
      <type>A</type>
      <amplitude>
        <value>663630.375000</value>
      </amplitude>
      <timeWindow>
        <reference>2010-09-03T16:38:03.255Z</reference>
        <begin>0</begin>
        <end>0</end>
      </timeWindow>
      <unit>dimensionless</unit>
      <waveformID channelCode="HHE" stationCode="WAZ" networkCode="NZ" locationCode="10"/>
      <evaluationMode>automatic</evaluationMode>
      <comment>
        <text>trace clipped</text>
      </comment>
    </amplitude>
    <amplitude publicID="27229981">
      <type>A</type>
      <amplitude>
        <value>0.062272</value>
      </amplitude>
      <timeWindow>
        <reference>2010-09-03T16:41:01.155Z</reference>
        <begin>0</begin>
        <end>0</end>
      </timeWindow>
      <unit>m/(s*s)</unit>
      <waveformID channelCode="HHE" stationCode="WAZ" networkCode="NZ" locationCode="10"/>
      <evaluationMode>automatic</evaluationMode>
      <comment>
        <text>trace clipped</text>
      </comment>
      <comment>
        <text>PGA</text>
      </comment>
    </amplitude>
    <amplitude publicID="27229986">
      <type>A</type>
      <amplitude>
        <value>6118606.500000</value>
      </amplitude>
      <timeWindow>
        <reference>2010-09-03T16:36:13.637Z</reference>
        <begin>0</begin>
        <end>0</end>
      </timeWindow>
      <unit>dimensionless</unit>
